{"type":"Feature","properties":{"MUN":"GREENWICH TWP","COUNTY":"CUMBERLAND","MUN_LABEL":"Greenwich Township","MUN_TYPE":"Township","NAME":"Greenwich Township","GNIS_NAME":"Township of Greenwich"},"geometry":{"type":"Polygon","coordinates":[[[-75.3285506,39.3915543],[-75.3285512,39.391538],[-75.3285709,39.3914745],[-75.3285987,39.3914156],[-75.3286285,39.3913457],[-75.3286545,39.391298],[-75.3286725,39.3912678],[-75.3287149,39.3912263],[-75.3287412,39.3912039],[-75.3287613,39.3911768],[-75.3288051,39.3910831],[-75.3288513,39.3910162],[-75.3289057,39.3909603],[-75.3289359,39.3909205],[-75.328968,39.3908759],[-75.3290576,39.3908499],[-75.3291226,39.3908225],[-75.3291712,39.3907889],[-75.3292095,39.390749],[-75.3292254,39.3907093],[-75.3292504,39.3905824],[-75.329273,39.390419],[-75.3292874,39.3902526],[-75.3292938,39.3901908],[-75.3293029,39.3901004],[-75.3293244,39.3900178],[-75.3293599,39.3899083],[-75.3294216,39.3897795],[-75.3294985,39.3896364],[-75.3295126,39.3896038],[-75.329582,39.3894441],[-75.3296417,39.3893105],[-75.3296444,39.3893017],[-75.3297027,39.3891152],[-75.3297131,39.3890824],[-75.3297351,39.3890136],[-75.32978,39.3888359],[-75.3297793,39.3887804],[-75.3297706,39.3887345],[-75.3297435,39.3886872],[-75.3297247,39.3886573],[-75.3296957,39.3886115],[-75.3296377,39.3885437],[-75.3295887,39.388494],[-75.3295881,39.3884934],[-75.329564,39.3884413],[-75.3295465,39.3883448],[-75.3295458,39.3882814],[-75.3295452,39.3882291],[-75.3295488,39.3881895],[-75.3295647,39.3881529],[-75.3295847,39.3881195],[-75.3295988,39.388102],[-75.3296008,39.388102],[-75.3296333,39.3880827],[-75.3296842,39.3880761],[-75.3297639,39.3880818],[-75.3298357,39.3881051],[-75.3298767,39.388119],[-75.3299176,39.3881283],[-75.329987,39.3881293],[-75.3300646,39.3881304],[-75.3301603,39.3881059],[-75.3303176,39.3880288],[-75.3306845,39.387798],[-75.3309163,39.3874967],[-75.3314406,39.3875475],[-75.3318706,39.3875243],[-75.3326004,39.3874137],[-75.332796,39.3873583],[-75.3332195,39.3872385],[-75.3338026,39.3870285],[-75.3340915,39.3868407],[-75.3342772,39.3866786],[-75.3344173,39.3864919],[-75.3344731,39.3862856],[-75.3344889,39.3859792],[-75.3344856,39.3857031],[-75.334419,39.3852768],[-75.3343679,39.3850613],[-75.3342148,39.3847008],[-75.3340502,39.384461],[-75.3337416,39.3840816],[-75.3332725,39.3836523],[-75.3328978,39.3833094],[-75.3320357,39.3826277],[-75.3317383,39.3823788],[-75.3315356,39.3821995],[-75.3314042,39.3820297],[-75.3312724,39.3818298],[-75.3311992,39.3816596],[-75.3311452,39.3814692],[-75.3310899,39.3811734],[-75.3310756,39.3810162],[-75.3310602,39.3808472],[-75.331091,39.3804453],[-75.3311584,39.3801285],[-75.3312465,39.379917],[-75.3313865,39.3797152],[-75.3316487,39.3794623],[-75.3319178,39.3792394],[-75.3324416,39.3789445],[-75.3330275,39.3787093],[-75.3338714,39.378407],[-75.3344752,39.3782375],[-75.3344785,39.3782366],[-75.3348216,39.3781391],[-75.3352937,39.3780504],[-75.3358754,39.3780374],[-75.3359599,39.3780355],[-75.3368589,39.378014],[-75.3372989,39.3780209],[-75.3379435,39.3780916],[-75.3388641,39.3782557],[-75.3397472,39.3785204],[-75.3406688,39.3789507],[-75.3407003,39.3789654],[-75.3417172,39.3796007],[-75.3428689,39.3804327],[-75.3430453,39.3805602],[-75.3439681,39.3812796],[-75.3441556,39.3814258],[-75.345014,39.3820572],[-75.345621,39.3824946],[-75.34596,39.382703],[-75.3461001,39.382773],[-75.3463765,39.3829109],[-75.346695,39.3830291],[-75.3467904,39.3830486],[-75.3472171,39.3831357],[-75.3479362,39.3832108],[-75.3482338,39.3832087],[-75.3488353,39.3831892],[-75.3491064,39.3831421],[-75.3495803,39.383003],[-75.3502502,39.3827571],[-75.3506738,39.3824729],[-75.3509935,39.3821642],[-75.3524124,39.3807329],[-75.3529856,39.3801901],[-75.3537748,39.3794426],[-75.3542187,39.3789724],[-75.3544682,39.3787396],[-75.3546404,39.3785375],[-75.3547417,39.378356],[-75.3547978,39.3781799],[-75.354802,39.3779941],[-75.3547998,39.3778183],[-75.3547522,39.3776279],[-75.3546661,39.3774628],[-75.3544977,39.3771779],[-75.3540576,39.3766388],[-75.3537439,39.376375],[-75.3533788,39.3761417],[-75.3530077,39.3759486],[-75.3527122,39.3758554],[-75.352193,39.3757186],[-75.351813,39.3756489],[-75.3517456,39.3756365],[-75.3506674,39.3755541],[-75.3501753,39.3755125],[-75.3497476,39.3754553],[-75.3493842,39.3753676],[-75.3491231,39.3752906],[-75.3491018,39.3752843],[-75.3487572,39.3751362],[-75.3484985,39.375012],[-75.3482537,39.3748247],[-75.3480206,39.3745934],[-75.3476768,39.3741545],[-75.3474633,39.3738093],[-75.3473757,39.3734958],[-75.3473434,39.3731277],[-75.3473779,39.3725208],[-75.3474512,39.3722005],[-75.3476676,39.3712549],[-75.347769,39.3708116],[-75.3480234,39.3699214],[-75.3480928,39.3697319],[-75.3482261,39.3693674],[-75.3485549,39.3688559],[-75.348734,39.3686596],[-75.3489692,39.3684953],[-75.3491079,39.3684176],[-75.3493855,39.3682973],[-75.3499563,39.368174],[-75.3503746,39.3681384],[-75.350908,39.3681542],[-75.3511076,39.3681601],[-75.3521745,39.3682705],[-75.3523793,39.3682916],[-75.3537628,39.3684332],[-75.354615,39.3685027],[-75.3552248,39.3685075],[-75.3553269,39.3685084],[-75.3556337,39.3684844],[-75.3558421,39.3684071],[-75.3560223,39.3683082],[-75.3561465,39.3681881],[-75.3562841,39.3680247],[-75.3563796,39.3678506],[-75.3564472,39.3676659],[-75.356448,39.367661],[-75.3564862,39.3674382],[-75.3564832,39.367189],[-75.3564096,39.3668753],[-75.3562592,39.3665046],[-75.3562081,39.3663785],[-75.3557884,39.3657262],[-75.3550338,39.3644967],[-75.3548619,39.3641548],[-75.3547191,39.3638707],[-75.3545463,39.3634386],[-75.3544699,39.3628975],[-75.3544515,39.3625292],[-75.3544622,39.3622583],[-75.3546115,39.3619106],[-75.3547618,39.3616494],[-75.355389,39.3610111],[-75.3557668,39.3607039],[-75.3558864,39.3606066],[-75.3568345,39.3600365],[-75.3569809,39.3599485],[-75.3574943,39.3597064],[-75.3579253,39.3595732],[-75.3580606,39.3595412],[-75.3581619,39.3595173],[-75.3585377,39.3594387],[-75.3586661,39.3594346],[-75.3589841,39.3594246],[-75.3599406,39.3594338],[-75.3600997,39.3594353],[-75.3606441,39.3594421],[-75.3609997,39.3594232],[-75.3615648,39.3593405],[-75.3627656,39.3591632],[-75.3628394,39.3591523],[-75.3634514,39.3589852],[-75.3635766,39.3589232],[-75.3640062,39.3587103],[-75.3644875,39.3583995],[-75.3645323,39.3583705],[-75.3650572,39.3579333],[-75.3655938,39.3573118],[-75.3657983,39.3569202],[-75.3659732,39.3563881],[-75.3660104,39.3560195],[-75.3660313,39.3555549],[-75.3660323,39.3555318],[-75.3659858,39.3545842],[-75.3658535,39.3540435],[-75.3656956,39.3536872],[-75.3654407,39.3533858],[-75.3650596,39.3530311],[-75.3647079,39.3528062],[-75.3642456,39.3526101],[-75.364231,39.3526039],[-75.363811,39.3524878],[-75.3633915,39.3524151],[-75.362805,39.352387],[-75.3622888,39.3523908],[-75.3618066,39.3524372],[-75.361801,39.3524377],[-75.3604701,39.352583],[-75.3601851,39.3526174],[-75.3598013,39.3526638],[-75.3591593,39.3526469],[-75.3582924,39.3525124],[-75.3577317,39.3522999],[-75.3572542,39.3520542],[-75.3569715,39.351753],[-75.3567869,39.3514943],[-75.356658,39.3512244],[-75.3566404,39.3509212],[-75.3566367,39.3506179],[-75.3567085,39.3503452],[-75.3567167,39.350314],[-75.3568394,39.3500747],[-75.357074,39.3498672],[-75.3574971,39.3496636],[-75.3579833,39.3494867],[-75.3587203,39.3492754],[-75.3597769,39.3489643],[-75.3605834,39.3487308],[-75.3612916,39.3484547],[-75.3613233,39.3484386],[-75.3618324,39.3481799],[-75.3622897,39.3479273],[-75.3625628,39.3477276],[-75.3630866,39.3472037],[-75.3632396,39.3469924],[-75.3632718,39.3469477],[-75.3633808,39.3467303],[-75.3634478,39.3465023],[-75.3634741,39.3461688],[-75.3634596,39.3458664],[-75.3634244,39.3456482],[-75.3633131,39.345397],[-75.3631798,39.3451123],[-75.3630143,39.344853],[-75.3627289,39.3445275],[-75.3624942,39.344357],[-75.361927,39.3439915],[-75.3613827,39.3437267],[-75.3607315,39.3435635],[-75.3601033,39.3435177],[-75.3590223,39.3436097],[-75.3584191,39.3437077],[-75.3585362,39.3423294],[-75.3585106,39.3422564],[-75.3585017,39.3422304],[-75.3584882,39.3421907],[-75.3584889,39.3421901],[-75.3584882,39.3421895],[-75.358431,39.3420604],[-75.3584145,39.341967],[-75.3584141,39.3419407],[-75.35842,39.3419166],[-75.3584322,39.3419022],[-75.3584443,39.3418829],[-75.358441,39.3418661],[-75.3584253,39.3418447],[-75.3584035,39.3418257],[-75.3583816,39.3418066],[-75.3583751,39.3417827],[-75.3583749,39.3417611],[-75.3583808,39.3417443],[-75.3583991,39.3417226],[-75.3584112,39.3417033],[-75.358411,39.3416818],[-75.3584077,39.3416674],[-75.3583889,39.3416484],[-75.3583642,39.3416414],[-75.3583363,39.3416368],[-75.3583146,39.3416321],[-75.3582804,39.3416108],[-75.3582522,39.3415798],[-75.3582242,39.3415585],[-75.3582183,39.3415551],[-75.3581993,39.3415443],[-75.3581622,39.341535],[-75.3581126,39.3415185],[-75.3581,39.3415018],[-75.3581029,39.3414874],[-75.3581089,39.3414682],[-75.3581118,39.3414586],[-75.3581578,39.3414295],[-75.3582038,39.3414028],[-75.3582756,39.3413768],[-75.3582772,39.3413765],[-75.3583003,39.3413727],[-75.3583173,39.3413726],[-75.3583543,39.3413687],[-75.3583789,39.3413601],[-75.3584003,39.3413444],[-75.3584078,39.3413276],[-75.3584213,39.3412975],[-75.3584503,39.3412697],[-75.3584794,39.3412479],[-75.3584932,39.3412406],[-75.3585086,39.3412429],[-75.3585164,39.3412452],[-75.3585397,39.3412535],[-75.3585605,39.3412533],[-75.3585728,39.3412508],[-75.3585913,39.3412471],[-75.3586129,39.3412469],[-75.3586284,39.3412528],[-75.3586331,39.3412564],[-75.3586332,39.341266],[-75.3586317,39.341272],[-75.3586242,39.34129],[-75.3586075,39.3413141],[-75.3585949,39.3413315],[-75.3585908,39.341337],[-75.3585817,39.3413479],[-75.3585803,39.3413623],[-75.358585,39.3413646],[-75.3585958,39.3413633],[-75.3586112,39.341362],[-75.3586374,39.341357],[-75.3586821,39.3413519],[-75.3587006,39.3413494],[-75.3587374,39.3413311],[-75.3588097,39.3413078],[-75.3588198,39.3413053],[-75.3588314,39.341322],[-75.3588951,39.341318],[-75.3589572,39.3413175],[-75.3590138,39.3413303],[-75.3590702,39.3413255],[-75.359166,39.3413028],[-75.3592331,39.3412585],[-75.3592581,39.3412388],[-75.3593227,39.3411877],[-75.3593354,39.3411776],[-75.3594521,39.3411554],[-75.359477,39.3411507],[-75.3595616,39.3411296],[-75.3596341,39.3411195],[-75.3597582,39.3411102],[-75.3598461,39.3411036],[-75.3599371,39.3410921],[-75.3599957,39.3410881],[-75.3600712,39.3410779],[-75.3601375,39.3410667],[-75.3602297,39.3410384],[-75.3602697,39.3410261],[-75.3603283,39.3410197],[-75.3603939,39.3410204],[-75.3604712,39.3410234],[-75.3605314,39.3410302],[-75.3605932,39.3410297],[-75.3606966,39.3410278],[-75.3607425,39.3410274],[-75.3608463,39.3410266],[-75.3608977,39.3410263],[-75.3609451,39.3410259],[-75.3610068,39.3410255],[-75.3610578,39.3410275],[-75.3611374,39.3410329],[-75.3611713,39.3410302],[-75.3611769,39.3410302],[-75.3612269,39.3410298],[-75.3613595,39.3410133],[-75.3614164,39.3409997],[-75.3614896,39.3409919],[-75.3615135,39.3409893],[-75.3615877,39.3409948],[-75.3616186,39.3409934],[-75.3616463,39.3409884],[-75.3616848,39.3409833],[-75.3617526,39.3409744],[-75.3617849,39.3409658],[-75.3618202,39.3409451],[-75.3618293,39.3409355],[-75.3618292,39.3409271],[-75.361826,39.3409175],[-75.3618182,39.340908],[-75.361815,39.340896],[-75.3618148,39.3408804],[-75.3618191,39.3408576],[-75.3618204,39.3408365],[-75.361807,39.3407672],[-75.3618902,39.3407516],[-75.3620021,39.3408039],[-75.3620631,39.3408965],[-75.3621373,39.3409291],[-75.3621605,39.3409393],[-75.3621414,39.3409523],[-75.3621377,39.3409565],[-75.3621155,39.3409813],[-75.3621033,39.340991],[-75.3621004,39.3410042],[-75.3621082,39.3410149],[-75.3621505,39.3410638],[-75.3621709,39.3410936],[-75.3621975,39.3411234],[-75.3622007,39.3411269],[-75.3622458,39.3411589],[-75.3622878,39.3411826],[-75.3623389,39.3412002],[-75.3623621,39.3412036],[-75.3623884,39.3412046],[-75.3624023,39.3412069],[-75.362438,39.3412246],[-75.3624739,39.3412519],[-75.362488,39.3412698],[-75.3625053,39.3412937],[-75.3625256,39.3413115],[-75.3625536,39.3413353],[-75.3625647,39.3413532],[-75.3625727,39.3413783],[-75.3625864,39.3414203],[-75.3625876,39.3414261],[-75.3625954,39.3414381],[-75.3626141,39.3414475],[-75.362625,39.3414534],[-75.3626282,39.3414678],[-75.3626284,39.341481],[-75.3626223,39.3414906],[-75.3626103,39.3415183],[-75.3625905,39.3415364],[-75.3625462,39.3415739],[-75.3625283,39.3415849],[-75.3625109,39.3415957],[-75.3624649,39.34162],[-75.3624358,39.3416406],[-75.3624206,39.3416611],[-75.362401,39.3416924],[-75.3623904,39.3417117],[-75.3623906,39.3417273],[-75.3623954,39.3417416],[-75.362401,39.3417608],[-75.362397,39.3418075],[-75.3623942,39.3418375],[-75.362396,39.3418567],[-75.3624038,39.3418614],[-75.3624148,39.3418793],[-75.3624165,39.3418913],[-75.3624105,39.3419045],[-75.3623939,39.3419334],[-75.3623879,39.3419502],[-75.3623881,39.3419622],[-75.3623897,39.341973],[-75.3624101,39.3419932],[-75.3624288,39.3420111],[-75.3624398,39.342023],[-75.362443,39.3420338],[-75.362443,39.3420397],[-75.3624416,39.3420481],[-75.3624357,39.3420674],[-75.3624374,39.3420853],[-75.3624469,39.3421056],[-75.3624594,39.3421151],[-75.3624687,39.3421187],[-75.3624904,39.3421281],[-75.3625076,39.3421436],[-75.3625264,39.3421626],[-75.3625466,39.3421768],[-75.3625661,39.3421875],[-75.3626419,39.3422037],[-75.3626806,39.3422094],[-75.3627393,39.342215],[-75.3627702,39.3422195],[-75.3628042,39.3422229],[-75.3628552,39.3422285],[-75.3628923,39.3422282],[-75.3629324,39.3422279],[-75.3629392,39.3422272],[-75.3629571,39.3422253],[-75.3629725,39.3422204],[-75.3629832,39.3422131],[-75.3629908,39.3422023],[-75.3630091,39.3421866],[-75.3630522,39.3421743],[-75.3630783,39.3421657],[-75.3631077,39.3421667],[-75.3631525,39.3421759],[-75.3631945,39.342196],[-75.3632301,39.3422029],[-75.3632571,39.3422039],[-75.3633312,39.342207],[-75.3633806,39.342203],[-75.3634053,39.3421992],[-75.3634344,39.342187],[-75.363462,39.3421688],[-75.3634742,39.3421556],[-75.3634848,39.3421435],[-75.3634955,39.3421362],[-75.3635079,39.3421337],[-75.3635249,39.342136],[-75.363542,39.3421479],[-75.3635607,39.3421597],[-75.3635808,39.3421668],[-75.3635963,39.3421667],[-75.3636163,39.3421641],[-75.3636441,39.3421651],[-75.3636843,39.3421708],[-75.3637059,39.3421706],[-75.3637198,39.3421669],[-75.3637336,39.3421608],[-75.3637598,39.3421535],[-75.363803,39.3421531],[-75.3638277,39.342153],[-75.3638325,39.3421537],[-75.3638431,39.3421552],[-75.3638834,39.3421681],[-75.3639144,39.3421751],[-75.3639654,39.3421831],[-75.3640103,39.3421923],[-75.3640521,39.342204],[-75.3641001,39.3422097],[-75.3641341,39.3422118],[-75.3641758,39.3422139],[-75.3642082,39.3422137],[-75.3642359,39.3422098],[-75.3642574,39.3422013],[-75.3642865,39.3421819],[-75.3643064,39.3421626],[-75.3643216,39.3421469],[-75.3643295,39.3421422],[-75.3643339,39.3421396],[-75.3643493,39.3421407],[-75.3643633,39.3421454],[-75.3643757,39.3421561],[-75.3643837,39.3421752],[-75.3643886,39.3421967],[-75.3643873,39.3422135],[-75.3643858,39.3422195],[-75.3643767,39.3422316],[-75.3643646,39.3422508],[-75.3643633,39.3422724],[-75.3643696,39.3422868],[-75.3643838,39.3423058],[-75.3643933,39.3423286],[-75.3643936,39.3423489],[-75.3643877,39.3423753],[-75.3643787,39.342397],[-75.3643604,39.3424175],[-75.3643329,39.3424345],[-75.3643145,39.3424502],[-75.3642992,39.3424611],[-75.3642948,39.3424767],[-75.3643005,39.3424828],[-75.3643026,39.3424851],[-75.3643196,39.3424861],[-75.3643458,39.3424859],[-75.3643659,39.3424858],[-75.3643783,39.3424881],[-75.3644016,39.3425011],[-75.3644343,39.342526],[-75.3644685,39.3425462],[-75.3644935,39.342564],[-75.3645123,39.3425902],[-75.3645141,39.3426129],[-75.3645097,39.3426322],[-75.3645007,39.3426478],[-75.3644779,39.3426803],[-75.3644618,39.3427217],[-75.364454,39.3427417],[-75.3644445,39.3427849],[-75.3644447,39.3428005],[-75.3644481,39.342828],[-75.3644591,39.3428471],[-75.3644733,39.3428674],[-75.3644935,39.342878],[-75.3645013,39.3428852],[-75.3645076,39.3429007],[-75.3645026,39.3429906],[-75.3645013,39.3430146],[-75.3645016,39.3430326],[-75.3645079,39.3430469],[-75.364522,39.3430636],[-75.3645299,39.3430803],[-75.3645413,39.343127],[-75.3645646,39.3431999],[-75.3645772,39.3432178],[-75.3645866,39.3432333],[-75.3645914,39.3432429],[-75.3645915,39.3432543],[-75.3645916,39.3432573],[-75.3645918,39.3432801],[-75.3645957,39.343346],[-75.3646021,39.3433651],[-75.3646226,39.3433973],[-75.3646524,39.3434319],[-75.3646915,39.3434735],[-75.3647211,39.3434961],[-75.3647475,39.3435127],[-75.3647632,39.3435317],[-75.3647712,39.343552],[-75.3647854,39.3435759],[-75.364801,39.343589],[-75.364818,39.3435948],[-75.3648366,39.3435971],[-75.3648536,39.3435994],[-75.3648722,39.3436076],[-75.3648848,39.3436279],[-75.3648897,39.3436518],[-75.36489,39.343671],[-75.3648871,39.3436878],[-75.3648719,39.3437083],[-75.3648567,39.343724],[-75.3647877,39.3437786],[-75.3647871,39.3437869],[-75.3647426,39.3438486],[-75.3647266,39.3439189],[-75.3647276,39.3440022],[-75.3647533,39.3440279],[-75.3647351,39.3440291],[-75.3647275,39.3440375],[-75.364723,39.3440484],[-75.3647233,39.3440675],[-75.3647176,39.3441071],[-75.3647086,39.3441312],[-75.3646964,39.3441421],[-75.3646887,39.3441433],[-75.3646795,39.3441458],[-75.3646687,39.3441519],[-75.3646581,39.3441699],[-75.3646553,39.3441915],[-75.3646437,39.3442467],[-75.3646272,39.3442948],[-75.3646224,39.3443089],[-75.3646203,39.3443118],[-75.3646157,39.3443286],[-75.3646039,39.3443717],[-75.3646041,39.3443914],[-75.364612,39.3444352],[-75.3646186,39.3444663],[-75.3646187,39.3444807],[-75.3646126,39.3444879],[-75.3646053,39.3444888],[-75.3646019,39.3444892],[-75.3645802,39.3444894],[-75.3645633,39.3444895],[-75.3645371,39.3444945],[-75.3645217,39.3444994],[-75.3645018,39.3445103],[-75.3644911,39.3445248],[-75.3644776,39.3445513],[-75.3644679,39.3445849],[-75.3644667,39.3446065],[-75.3644667,39.3446067],[-75.3644667,39.3446069],[-75.3644668,39.3446197],[-75.3644578,39.3446377],[-75.3644456,39.3446474],[-75.3644364,39.3446559],[-75.364415,39.3446752],[-75.3644059,39.3446872],[-75.3644045,39.344698],[-75.3644046,39.3447088],[-75.3654226,39.3463591],[-75.3654239,39.3463641],[-75.365428,39.3463861],[-75.3654398,39.346397],[-75.3654566,39.3464019],[-75.3654578,39.3464021],[-75.3654747,39.3464047],[-75.3655213,39.3464194],[-75.3655563,39.3464412],[-75.365581,39.346457],[-75.3655902,39.3464669],[-75.3655916,39.3464769],[-75.3655904,39.3464869],[-75.3655906,39.346501],[-75.3655933,39.346516],[-75.3656052,39.3465399],[-75.365616,39.3465728],[-75.3656241,39.3466088],[-75.365627,39.3466288],[-75.3656272,39.3466468],[-75.3656377,39.3466627],[-75.3656481,39.3466687],[-75.3656597,39.3466726],[-75.3656791,39.3466784],[-75.3656921,39.3466883],[-75.3657052,39.3467023],[-75.3657093,39.3467202],[-75.3657095,39.3467383],[-75.3657123,39.3467583],[-75.3657177,39.3467782],[-75.3657256,39.3467902],[-75.3657399,39.3468001],[-75.3657607,39.3468119],[-75.3657828,39.3468288],[-75.3658127,39.3468516],[-75.3658232,39.3468655],[-75.3658237,39.3469025],[-75.3658214,39.3469246],[-75.3658215,39.3469356],[-75.3658269,39.3469516],[-75.3658386,39.3469625],[-75.3658542,39.3469694],[-75.3658737,39.3469822],[-75.3658789,39.3469912],[-75.3658791,39.3470052],[-75.365878,39.3470212],[-75.3658729,39.3470283],[-75.365864,39.3470333],[-75.3658422,39.3470445],[-75.3658333,39.3470546],[-75.3658271,39.3470787],[-75.3658273,39.3470947],[-75.3658343,39.3471386],[-75.3658371,39.3471429],[-75.3658435,39.3471526],[-75.3658591,39.3471615],[-75.3658772,39.3471654],[-75.3659069,39.3471701],[-75.3659302,39.347175],[-75.3659483,39.3471808],[-75.3659871,39.3471896],[-75.3660155,39.3471984],[-75.3660337,39.3472122],[-75.3660481,39.3472241],[-75.3660623,39.347229],[-75.3660714,39.347232],[-75.3660881,39.3472318],[-75.3660983,39.3472237],[-75.3661047,39.3472147],[-75.3661187,39.3472006],[-75.3661353,39.3471915],[-75.3661983,39.347177],[-75.3662434,39.3471776],[-75.366268,39.3471885],[-75.3662914,39.3472033],[-75.3663266,39.3472351],[-75.3663358,39.347244],[-75.3663487,39.3472509],[-75.3663824,39.3472607],[-75.3664109,39.3472755],[-75.3664278,39.3472904],[-75.3664345,39.3473063],[-75.3664424,39.3473183],[-75.3664463,39.3473222],[-75.3664579,39.3473252],[-75.3664799,39.347328],[-75.3665108,39.3473298],[-75.366547,39.3473405],[-75.3665691,39.3473523],[-75.366595,39.3473652],[-75.3666055,39.3473751],[-75.3666107,39.3473831],[-75.3666108,39.3473931],[-75.3666045,39.3474041],[-75.3666007,39.3474092],[-75.3665995,39.3474152],[-75.3665996,39.3474222],[-75.3666036,39.3474312],[-75.3666166,39.3474421],[-75.3666336,39.347459],[-75.3666531,39.3474758],[-75.3666882,39.3474966],[-75.3667179,39.3475054],[-75.3667411,39.3475062],[-75.366754,39.3475051],[-75.3667809,39.3474939],[-75.3668208,39.3474836],[-75.3668582,39.3474853],[-75.3668763,39.3474902],[-75.3668957,39.347498],[-75.3669228,39.3474998],[-75.3669434,39.3474997],[-75.3669743,39.3474925],[-75.3670089,39.3474792],[-75.3670295,39.347476],[-75.367054,39.3474748],[-75.3670695,39.3474767],[-75.3670837,39.3474826],[-75.3670928,39.3474896],[-75.3670955,39.3475006],[-75.3670946,39.3475296],[-75.3670898,39.3475576],[-75.3670913,39.3475766],[-75.3671006,39.3475996],[-75.3671176,39.3476205],[-75.3671463,39.3476443],[-75.3671646,39.3476622],[-75.3671803,39.3476831],[-75.3671909,39.347704],[-75.3671991,39.347744],[-75.3672021,39.3477565],[-75.3672113,39.3477939],[-75.3672155,39.3478229],[-75.3672158,39.3478409],[-75.3672108,39.347857],[-75.3672019,39.3478651],[-75.3671749,39.3478723],[-75.3671478,39.3478745],[-75.3669925,39.3478749],[-75.3669631,39.3478825],[-75.366925,39.3479037],[-75.3669194,39.3479126],[-75.3669162,39.3479196],[-75.3669147,39.3479285],[-75.366914,39.3479424],[-75.3669208,39.3479595],[-75.3669275,39.3479721],[-75.3669448,39.3479834],[-75.3669595,39.3479865],[-75.3669766,39.3479863],[-75.3669971,39.3479893],[-75.3670192,39.3479974],[-75.3670324,39.3480081],[-75.3670465,39.3480226],[-75.3670704,39.3480408],[-75.3670934,39.3480507],[-75.3671106,39.3480563],[-75.3671271,39.3480689],[-75.3671329,39.3480821],[-75.3671413,39.3480941],[-75.3671519,39.3481004],[-75.3671683,39.3481047],[-75.3671961,39.3481064],[-75.3672198,39.3481094],[-75.3672305,39.348115],[-75.3672396,39.3481226],[-75.3672454,39.348132],[-75.3672513,39.3481491],[-75.3672572,39.3481592],[-75.3672721,39.3481743],[-75.3672787,39.3481793],[-75.3672885,39.3481837],[-75.3673,39.3481855],[-75.3673122,39.348186],[-75.3673302,39.3481853],[-75.3673546,39.3481845],[-75.3673743,39.3481869],[-75.3673874,39.3481931],[-75.367399,39.3482044],[-75.3674079,39.3482183],[-75.3674165,39.3482315],[-75.3674322,39.3482485],[-75.3674446,39.3482605],[-75.3674521,39.3482718],[-75.3674547,39.3482839],[-75.3674548,39.3482946],[-75.3674576,39.3483935],[-75.3674586,39.3484081],[-75.3674589,39.3484252],[-75.3674549,39.3484366],[-75.3674468,39.3484437],[-75.3674314,39.3484501],[-75.36739,39.3484688],[-75.3673608,39.3484817],[-75.3673226,39.3484966],[-75.3673072,39.34851],[-75.3672952,39.3485278],[-75.3672848,39.3485419],[-75.3672718,39.3485521],[-75.3672539,39.3485586],[-75.3672319,39.34856],[-75.3672115,39.3485602],[-75.3671943,39.348559],[-75.367178,39.3485592],[-75.3671633,39.3485612],[-75.3671471,39.3485702],[-75.3671367,39.348581],[-75.3671337,39.3485981],[-75.3671495,39.3486183],[-75.3671506,39.3486289],[-75.3671507,39.3486357],[-75.3671181,39.3486775],[-75.3671156,39.3487047],[-75.3671601,39.3487663],[-75.3671631,39.348773],[-75.3671594,39.3487912],[-75.3670546,39.349012],[-75.3670579,39.3490171],[-75.3670589,39.3490247],[-75.367059,39.3490348],[-75.3670535,39.3490564],[-75.367048,39.3490755],[-75.3670467,39.3490952],[-75.3670477,39.3491123],[-75.3670481,39.3491155],[-75.3670522,39.3491465],[-75.3670532,39.3491585],[-75.3670542,39.3491788],[-75.3670617,39.3491889],[-75.3670691,39.3491926],[-75.3670757,39.3491951],[-75.3670912,39.3491981],[-75.3671109,39.3492043],[-75.3671199,39.3492119],[-75.3671226,39.349229],[-75.3671154,39.3492404],[-75.3670841,39.3492574],[-75.3670785,39.349264],[-75.3670778,39.3492764],[-75.3670809,39.3492983],[-75.3670878,39.3493239],[-75.3671002,39.3493421],[-75.3671513,39.3494367],[-75.3671649,39.3494724],[-75.3671885,39.3495512],[-75.3671917,39.3495819],[-75.3672073,39.3496278],[-75.367218,39.349654],[-75.3672277,39.3496774],[-75.367228,39.3496978],[-75.3672226,39.3497183],[-75.3672087,39.3497404],[-75.3671911,39.3497602],[-75.3671753,39.3497779],[-75.367166,39.3497911],[-75.3671559,39.3498066],[-75.3671523,39.3498212],[-75.3671533,39.3498322],[-75.3671601,39.3498438],[-75.3671734,39.3498532],[-75.3671894,39.3498575],[-75.3671905,39.3498577],[-75.3671923,39.3498567],[-75.3672036,39.3498566],[-75.3672177,39.3498587],[-75.3672414,39.3498702],[-75.3672698,39.3498876],[-75.367304,39.3499107],[-75.3673307,39.3499346],[-75.3673807,39.350022],[-75.3674019,39.350062],[-75.3674172,39.3500802],[-75.3674334,39.350094],[-75.3674439,39.3501056],[-75.367445,39.350118],[-75.3674422,39.3501231],[-75.3674386,39.3501327],[-75.3674435,39.3501458],[-75.3674501,39.3501501],[-75.3674737,39.350158],[-75.367485,39.3501586],[-75.3674963,39.3501578],[-75.3675104,39.3501519],[-75.3675273,39.3501481],[-75.3675357,39.3501436],[-75.3675469,39.3501377],[-75.3675629,39.3501368],[-75.3675846,39.3501403],[-75.3676073,39.350146],[-75.3676262,39.3501568],[-75.3676433,39.3501677],[-75.3676576,39.3501837],[-75.3676795,39.3502003],[-75.3677108,39.3502213],[-75.3677384,39.3502452],[-75.3677716,39.350261],[-75.3678256,39.3502899],[-75.367854,39.3503028],[-75.3678749,39.3503136],[-75.3678891,39.3503259],[-75.3679006,39.3503419],[-75.3679349,39.3503724],[-75.3679492,39.3503854],[-75.3679559,39.3503978],[-75.3679732,39.3504247],[-75.3680142,39.3504646],[-75.3680285,39.3504813],[-75.3680344,39.3504996],[-75.3680433,39.3505317],[-75.368051,39.3505521],[-75.3680711,39.3505731],[-75.368108,39.3505926],[-75.3681628,39.3506046],[-75.3681836,39.3506103],[-75.3681987,39.3506109],[-75.3682156,39.3506122],[-75.368225,39.3506151],[-75.3682298,39.3506224],[-75.3682309,39.3506341],[-75.3682312,39.3506516],[-75.3682364,39.350694],[-75.3682451,39.3507144],[-75.3682537,39.350726],[-75.368268,39.3507368],[-75.3682812,39.3507419],[-75.3683049,39.350749],[-75.3683276,39.3507576],[-75.3683418,39.3507663],[-75.3683494,39.350775],[-75.3683505,39.3507823],[-75.368349,39.3508174],[-75.3683539,39.3508312],[-75.3683644,39.3508399],[-75.3683852,39.3508529],[-75.3684222,39.3508746],[-75.3684479,39.3508927],[-75.3684689,39.3509181],[-75.3684852,39.3509436],[-75.3684978,39.3509742],[-75.3685077,39.3510114],[-75.3685259,39.3510383],[-75.3685556,39.351079],[-75.368573,39.3511147],[-75.3685773,39.3511563],[-75.3685834,39.3511914],[-75.3686036,39.3512292],[-75.3686324,39.3512743],[-75.3686555,39.3513114],[-75.3686728,39.3513383],[-75.3686794,39.3513456],[-75.3686851,39.3513478],[-75.3686992,39.3513469],[-75.3687105,39.3513432],[-75.3687236,39.3513358],[-75.3687292,39.3513313],[-75.3687414,39.3513291],[-75.3687546,39.3513297],[-75.368765,39.3513325],[-75.3687754,39.3513383],[-75.3687962,39.3513477],[-75.36889,39.351383],[-75.3690665,39.3515854],[-75.3690819,39.3516043],[-75.3690839,39.3516189],[-75.3690841,39.3516321],[-75.3690786,39.3516482],[-75.3690883,39.35167],[-75.3691054,39.3516845],[-75.3691151,39.3517005],[-75.369119,39.3517181],[-75.3691191,39.3517254],[-75.3691155,39.3517385],[-75.3691063,39.3517576],[-75.3691046,39.3517723],[-75.3691049,39.3517898],[-75.369122,39.3518087],[-75.369141,39.3518188],[-75.3691487,39.3518319],[-75.3691527,39.3518523],[-75.3691532,39.3518889],[-75.3691478,39.3519152],[-75.369148,39.3519284],[-75.3691729,39.3519603],[-75.3691845,39.3519866],[-75.3691943,39.3520187],[-75.3692059,39.3520449],[-75.3692196,39.3520813],[-75.3692198,39.3521018],[-75.3692163,39.3521194],[-75.3692146,39.3521398],[-75.3692186,39.3521559],[-75.3692263,39.352169],[-75.3692509,39.3521761],[-75.3692735,39.352176],[-75.3692923,39.3521758],[-75.3693149,39.3521757],[-75.3693622,39.3521914],[-75.3694096,39.3522203],[-75.3694382,39.3522449],[-75.3694724,39.3522739],[-75.3695008,39.3522825],[-75.3695365,39.3522836],[-75.3695648,39.352282],[-75.369593,39.3522803],[-75.3696231,39.3522815],[-75.369644,39.352296],[-75.3696592,39.3523061],[-75.3696896,39.3523234],[-75.3697255,39.3523349],[-75.3697368,39.3523348],[-75.369748,39.3523274],[-75.3697628,39.3523083],[-75.3697759,39.3522965],[-75.3697946,39.3522861],[-75.3698189,39.3522771],[-75.3698358,39.3522683],[-75.3698526,39.3522564],[-75.3698788,39.352246],[-75.3699127,39.3522472],[-75.3699279,39.3522544],[-75.3699582,39.3522717],[-75.3700151,39.3523064],[-75.370051,39.352312],[-75.3700905,39.3523117],[-75.3701281,39.3523085],[-75.3701733,39.3523067],[-75.3702186,39.3523166],[-75.3702734,39.3523337],[-75.3703376,39.3523405],[-75.370379,39.3523402],[-75.3704166,39.3523399],[-75.3705447,39.352339],[-75.3706051,39.3523502],[-75.3706448,39.3523675],[-75.370681,39.3523964],[-75.3706963,39.3524183],[-75.3707135,39.3524357],[-75.3707381,39.3524486],[-75.3707702,39.3524528],[-75.3708003,39.3524526],[-75.3708265,39.3524436],[-75.3708434,39.3524332],[-75.3708583,39.35242],[-75.3708958,39.3524109],[-75.3709335,39.3524092],[-75.3709486,39.3524149],[-75.370962,39.3524338],[-75.3709851,39.3524716],[-75.3709854,39.352495],[-75.3709782,39.3525229],[-75.370954,39.3525479],[-75.3709373,39.3525626],[-75.3709298,39.3525729],[-75.37093,39.3525861],[-75.3709433,39.3525991],[-75.3709529,39.3526078],[-75.3709718,39.3526135],[-75.3709925,39.3526134],[-75.3710057,39.3526118],[-75.3710169,39.3526074],[-75.3710356,39.3526014],[-75.3710695,39.3525982],[-75.3710996,39.352598],[-75.3711242,39.3526036],[-75.3725479,39.353177],[-75.3725604,39.3531841],[-75.3725791,39.3531983],[-75.372607,39.3532059],[-75.3726367,39.3532033],[-75.3726567,39.3532032],[-75.3726815,39.3532114],[-75.3727033,39.3532256],[-75.3727299,39.3532505],[-75.3727486,39.3532672],[-75.3727968,39.353292],[-75.3728434,39.3533108],[-75.3728652,39.3533263],[-75.3728855,39.3533477],[-75.3728981,39.3533644],[-75.3729106,39.3533775],[-75.3729324,39.3533905],[-75.3729541,39.3534035],[-75.3729745,39.3534309],[-75.3729998,39.3534763],[-75.3730125,39.353499],[-75.3730265,39.3535084],[-75.373045,39.3535119],[-75.3730636,39.3535118],[-75.3731037,39.3535127],[-75.3731362,39.3535172],[-75.3731857,39.3535276],[-75.37324,39.3535428],[-75.3732835,39.3535629],[-75.3733052,39.3535747],[-75.3733331,39.3535853],[-75.3733625,39.3535898],[-75.3734183,39.3536074],[-75.3734525,39.3536203],[-75.3734774,39.3536381],[-75.3734931,39.353656],[-75.373504,39.3536703],[-75.3735165,39.353675],[-75.3735381,39.3536772],[-75.3735493,39.3536781],[-75.3735798,39.3536805],[-75.3736215,39.3536778],[-75.3736233,39.3536779],[-75.373674,39.3536798],[-75.3737559,39.3536888],[-75.3738318,39.353705],[-75.3738998,39.3537129],[-75.3739323,39.3537186],[-75.3740527,39.3537581],[-75.3740983,39.3537621],[-75.3741447,39.3537546],[-75.3741903,39.3537275],[-75.3742225,39.3537093],[-75.3742593,39.3536874],[-75.3742946,39.3536751],[-75.3743361,39.3536702],[-75.3743625,39.353671],[-75.3747767,39.3537626],[-75.3748029,39.3537624],[-75.3748648,39.3537668],[-75.3749127,39.3537712],[-75.3749806,39.3537731],[-75.3750017,39.353773],[-75.3750386,39.3537702],[-75.3750536,39.3537718],[-75.3750677,39.3537809],[-75.3751159,39.3538539],[-75.3751161,39.3538681],[-75.375113,39.3538815],[-75.3751057,39.3538965],[-75.3750983,39.3539033],[-75.3750479,39.3539162],[-75.3750361,39.3539221],[-75.3750234,39.3539364],[-75.3750017,39.353999],[-75.3749944,39.3540115],[-75.3749884,39.354026],[-75.3749402,39.3541754],[-75.3749348,39.3541886],[-75.3749046,39.3542283],[-75.3749048,39.3542397],[-75.3749083,39.3542494],[-75.3749859,39.3543221],[-75.3750017,39.354337],[-75.3750515,39.3544189],[-75.3750623,39.3544614],[-75.3750525,39.3545015],[-75.3750526,39.3545148],[-75.3750596,39.3545254],[-75.3751044,39.3545383],[-75.3752934,39.3545689],[-75.3755133,39.3545992],[-75.3755683,39.3546068],[-75.3756026,39.3546065],[-75.3756609,39.3546061],[-75.3756987,39.3546058],[-75.3758536,39.3546499],[-75.3759158,39.3546894],[-75.3759399,39.3546972],[-75.3759776,39.3546969],[-75.3761969,39.3546739],[-75.3763169,39.3546704],[-75.3764011,39.3546804],[-75.3764838,39.354717],[-75.376556,39.3547298],[-75.3766314,39.3547186],[-75.3766827,39.3547129],[-75.3769232,39.3547457],[-75.3771155,39.3547549],[-75.3771874,39.354749],[-75.3772114,39.3547435],[-75.3773035,39.3547056],[-75.3773549,39.3547025],[-75.3775025,39.354712],[-75.3775677,39.3547115],[-75.3776568,39.3547082],[-75.377773,39.3546727],[-75.377906,39.3546105],[-75.3779368,39.3546022],[-75.3780689,39.3546092],[-75.3780998,39.3546117],[-75.3782204,39.354648],[-75.378241,39.3546532],[-75.3783199,39.3546526],[-75.3783611,39.3546576],[-75.3784923,39.3547259],[-75.3785371,39.3547415],[-75.3789024,39.3547441],[-75.3790328,39.3547484],[-75.3790774,39.3547481],[-75.3790877,39.3547453],[-75.3791852,39.3547032],[-75.3792446,39.3546776],[-75.3792891,39.3546693],[-75.3794914,39.3546624],[-75.3797692,39.354663],[-75.3798207,39.3546626],[-75.3798378,39.3546571],[-75.3799024,39.354614],[-75.3800456,39.3545464],[-75.3802094,39.3544759],[-75.3803801,39.3544107],[-75.3804041,39.3544105],[-75.3804317,39.3544209],[-75.3804739,39.3545058],[-75.3804708,39.3545298],[-75.3804574,39.3545566],[-75.3804166,39.3545888],[-75.3804065,39.3545996],[-75.3804033,39.3546209],[-75.3804077,39.3546954],[-75.3804362,39.3547831],[-75.3805025,39.3548705],[-75.3805577,39.3548993],[-75.3807071,39.3549388],[-75.3808409,39.3549693],[-75.3808931,39.3549818],[-75.3810064,39.3549981],[-75.3810429,39.3550044],[-75.3810925,39.3550164],[-75.3811471,39.3550507],[-75.3811727,39.3550604],[-75.381329,39.3550641],[-75.3822557,39.3548749],[-75.3822717,39.3548747],[-75.3822781,39.3548797],[-75.3822818,39.3549144],[-75.3822826,39.3549152],[-75.3822866,39.3549193],[-75.382301,39.3549192],[-75.3823138,39.3549154],[-75.3823195,39.3549047],[-75.3823294,39.3548867],[-75.38235,39.3548766],[-75.382366,39.3548778],[-75.3823789,39.3548814],[-75.3823837,39.3548863],[-75.3823841,39.3549163],[-75.3823842,39.3549285],[-75.3823859,39.3549372],[-75.3823924,39.3549421],[-75.3824165,39.3549518],[-75.3824658,39.3549543],[-75.3825012,39.3549561],[-75.3825156,39.354956],[-75.3825316,39.3549584],[-75.3825557,39.3549669],[-75.3825896,39.3549964],[-75.3825994,39.355005],[-75.382617,39.3550136],[-75.3826763,39.3550243],[-75.3826891,39.3550292],[-75.3826956,39.3550365],[-75.3827048,39.3550675],[-75.3827097,39.3550724],[-75.3827226,39.355081],[-75.382822,39.3551076],[-75.3828413,39.3551211],[-75.3828511,39.3551359],[-75.3828744,39.3552101],[-75.3828998,39.3552596],[-75.3829871,39.3553349],[-75.3830081,39.355353],[-75.3830677,39.3553911],[-75.3831336,39.3554241],[-75.3831897,39.3554336],[-75.3832153,39.3554371],[-75.383265,39.3554503],[-75.3833165,39.355481],[-75.3833342,39.3554908],[-75.3833632,39.3555116],[-75.3833857,39.3555214],[-75.3834082,39.3555262],[-75.3834401,39.3555259],[-75.3834608,39.3555208],[-75.3834963,39.3555049],[-75.3835228,39.3554931],[-75.3835436,39.3554892],[-75.3836515,39.355497],[-75.3836723,39.3555006],[-75.3836884,39.3555054],[-75.3836965,39.3555165],[-75.3837101,39.3555797],[-75.3837426,39.3556192],[-75.3838506,39.3556928],[-75.38395,39.3557436],[-75.3840516,39.3557955],[-75.3840709,39.3558028],[-75.3840933,39.3558026],[-75.3841553,39.3557811],[-75.3841753,39.3557772],[-75.3841977,39.3557807],[-75.3842539,39.3558076],[-75.3842748,39.3558137],[-75.3843006,39.3558152],[-75.3843116,39.3558159],[-75.3843896,39.3557966],[-75.38442,39.3557977],[-75.3845062,39.3558162],[-75.3846868,39.3558552],[-75.3847268,39.3558574],[-75.3847524,39.3558559],[-75.384808,39.355827],[-75.3848303,39.3558231],[-75.3849864,39.3558492],[-75.3850201,39.3558613],[-75.3850766,39.3559006],[-75.3851476,39.3559571],[-75.385183,39.3559767],[-75.38522,39.3559938],[-75.3852601,39.3560084],[-75.3854604,39.3560491],[-75.3855197,39.356061],[-75.3855759,39.3560817],[-75.3856763,39.3561243],[-75.3857132,39.3561352],[-75.385766,39.3561361],[-75.3857868,39.3561371],[-75.3859307,39.3562068],[-75.3860064,39.3562571],[-75.3860953,39.3563358],[-75.3861196,39.3563641],[-75.3861424,39.3563962],[-75.3861622,39.3564407],[-75.3861801,39.3564716],[-75.3862549,39.3565352],[-75.38629,39.3565651],[-75.3863758,39.3566538],[-75.3864501,39.3567177],[-75.3865111,39.3567991],[-75.3865385,39.3568175],[-75.3865882,39.3568333],[-75.386633,39.3568367],[-75.3866904,39.3568226],[-75.3867192,39.3568248],[-75.3868012,39.3568689],[-75.3868142,39.3568812],[-75.3868255,39.3568923],[-75.3868504,39.3569653],[-75.386865,39.35698],[-75.3869229,39.3570082],[-75.3869801,39.3570487],[-75.3870606,39.3570964],[-75.3870847,39.3571049],[-75.3871295,39.3571083],[-75.3872397,39.3571038],[-75.3872692,39.3571124],[-75.3873136,39.3571445],[-75.3873215,39.3571546],[-75.3873221,39.3571763],[-75.3873256,39.3571937],[-75.3873321,39.3572048],[-75.3873724,39.3572318],[-75.3873741,39.3572442],[-75.3873711,39.3572554],[-75.3873648,39.3572616],[-75.3873464,39.357263],[-75.3873369,39.3572655],[-75.3873353,39.3572718],[-75.3873371,39.3572841],[-75.3873667,39.3573534],[-75.3873899,39.3574177],[-75.3874002,39.3574698],[-75.3874006,39.3575008],[-75.3873994,39.3575343],[-75.3873995,39.357543],[-75.3874204,39.3575565],[-75.3874541,39.3575674],[-75.3875213,39.3575706],[-75.3875455,39.3575853],[-75.3875665,39.3576075],[-75.3876134,39.3577151],[-75.3876296,39.3577311],[-75.3876619,39.3577531],[-75.3877616,39.3578045],[-75.3877906,39.3578204],[-75.3878487,39.3578671],[-75.3879243,39.357905],[-75.3879966,39.3579355],[-75.3881595,39.3579913],[-75.3882608,39.3580364],[-75.3883719,39.3581038],[-75.3884927,39.3581748],[-75.3886052,39.3582286],[-75.3887217,39.3582786],[-75.3887958,39.3583202],[-75.3888649,39.3583556],[-75.3889885,39.3583956],[-75.3891168,39.3584331],[-75.3891905,39.3584462],[-75.3892465,39.3584507],[-75.3892625,39.3584481],[-75.389272,39.3584443],[-75.3892751,39.3584381],[-75.3892715,39.3584009],[-75.3892742,39.3583661],[-75.389274,39.3583513],[-75.3892706,39.3583382],[-75.3892589,39.3582943],[-75.3892746,39.3582718],[-75.3892746,39.3582644],[-75.3892422,39.3582386],[-75.3892179,39.3582127],[-75.3892162,39.3582028],[-75.3892161,39.3581966],[-75.3892209,39.3581916],[-75.3892272,39.3581903],[-75.38924,39.3581902],[-75.3894045,39.3582411],[-75.3894962,39.3582913],[-75.3896187,39.3583734],[-75.3897187,39.3584434],[-75.3897786,39.3585025],[-75.3899206,39.3586763],[-75.3899661,39.3587293],[-75.3899825,39.3587627],[-75.3900084,39.3587935],[-75.3900185,39.3588282],[-75.3900755,39.3589183],[-75.3902128,39.3590898],[-75.3902519,39.3591478],[-75.3902842,39.359181],[-75.3903375,39.3592191],[-75.3903794,39.3592498],[-75.3904279,39.3592941],[-75.3904584,39.3593025],[-75.3904665,39.3593124],[-75.3904796,39.3593371],[-75.3904861,39.359347],[-75.3905362,39.359385],[-75.3905443,39.3593949],[-75.390585,39.3594542],[-75.3905947,39.3594628],[-75.390696,39.3595104],[-75.3907475,39.3595385],[-75.3908023,39.3595728],[-75.3908894,39.3596404],[-75.3909786,39.3597402],[-75.3910109,39.359766],[-75.3911055,39.3598132],[-75.3913098,39.3599344],[-75.3913589,39.3599635],[-75.3914045,39.3600199],[-75.39141,39.3600268],[-75.3914315,39.3600574],[-75.3914449,39.3600675],[-75.3914634,39.3600715],[-75.3915085,39.3600855],[-75.3915352,39.3601017],[-75.3916134,39.3602284],[-75.3916221,39.3602878],[-75.3916123,39.3603494],[-75.3916105,39.3604131],[-75.3916295,39.360454],[-75.3916539,39.3604969],[-75.3916886,39.3605274],[-75.3918319,39.3606679],[-75.3918744,39.360728],[-75.3918911,39.3607516],[-75.391931,39.3607759],[-75.3919549,39.3607819],[-75.3919707,39.3607829],[-75.3920105,39.3607856],[-75.3920397,39.3607997],[-75.3920691,39.3608262],[-75.3921148,39.3608853],[-75.3921282,39.3608975],[-75.3921495,39.3609076],[-75.3922292,39.3609378],[-75.3922558,39.360952],[-75.3922667,39.3609744],[-75.3922669,39.360995],[-75.3922701,39.361038],[-75.3922756,39.3610524],[-75.3922891,39.3610748],[-75.3923051,39.3610911],[-75.3923426,39.3611278],[-75.3923429,39.3611483],[-75.3923431,39.3611668],[-75.3923384,39.3612078],[-75.3923387,39.3612366],[-75.3923701,39.3613164],[-75.3923942,39.3613367],[-75.3924501,39.361365],[-75.3924743,39.3613997],[-75.3924962,39.3614591],[-75.3925232,39.3616087],[-75.392537,39.3616558],[-75.392567,39.3617253],[-75.3926241,39.361848],[-75.3926491,39.3619401],[-75.3926591,39.3620037],[-75.3926624,39.362057],[-75.3926582,39.3621432],[-75.3926586,39.3621699],[-75.3926807,39.3622436],[-75.3926812,39.3622826],[-75.392682,39.3623503],[-75.3926849,39.3623708],[-75.3926851,39.3623872],[-75.3927233,39.3624793],[-75.3927235,39.3624916],[-75.392721,39.362508],[-75.3926949,39.3625329],[-75.3926872,39.3625493],[-75.3926691,39.3626667],[-75.3926479,39.3627451],[-75.3926482,39.3627687],[-75.3926512,39.3627776],[-75.3926903,39.3628303],[-75.3926961,39.3628751],[-75.3926966,39.3628927],[-75.3926965,39.362964],[-75.3927176,39.363041],[-75.3927308,39.3631583],[-75.3927312,39.3631618],[-75.39278,39.3632608],[-75.392788,39.3632737],[-75.3927874,39.3633193],[-75.3927935,39.3633578],[-75.3927937,39.3633731],[-75.392796,39.3633849],[-75.3928225,39.3634051],[-75.3928271,39.3634204],[-75.3928166,39.3634544],[-75.3928189,39.3634663],[-75.3928632,39.3635051],[-75.3928985,39.3635218],[-75.3929335,39.3635232],[-75.3929641,39.3635179],[-75.392986,39.3635194],[-75.3931257,39.3635727],[-75.3931258,39.3635778],[-75.3931259,39.363588],[-75.3931128,39.3635949],[-75.3930954,39.3635985],[-75.393056,39.3635988],[-75.3930428,39.3635989],[-75.3930319,39.3636006],[-75.3930189,39.3636126],[-75.3930059,39.3636195],[-75.3929862,39.3636197],[-75.392962,39.3636148],[-75.3929423,39.3636115],[-75.3929292,39.3636116],[-75.392903,39.3636237],[-75.3928945,39.3636408],[-75.3928924,39.3636493],[-75.3928927,39.3636714],[-75.3929238,39.3637085],[-75.3929262,39.3637221],[-75.3929264,39.3637391],[-75.3929222,39.3637561],[-75.3929093,39.3637715],[-75.3928962,39.3637767],[-75.3928809,39.3637786],[-75.3928393,39.3637721],[-75.3928261,39.3637722],[-75.3928066,39.3637859],[-75.3927937,39.3638047],[-75.3927941,39.3638353],[-75.3927921,39.3638506],[-75.3927683,39.3638763],[-75.3927685,39.3638865],[-75.3927775,39.3639085],[-75.3927909,39.3639305],[-75.3928284,39.3639523],[-75.3928352,39.3639675],[-75.3928354,39.3639845],[-75.3928224,39.3639931],[-75.3927765,39.3640003],[-75.3927678,39.3640054],[-75.3927657,39.364014],[-75.3927658,39.3640225],[-75.3928192,39.3640866],[-75.3928238,39.364107],[-75.392824,39.3641206],[-75.3928242,39.3641342],[-75.3928312,39.3641698],[-75.3928401,39.3641799],[-75.3928885,39.3642016],[-75.3928974,39.3642135],[-75.3928934,39.3642441],[-75.3928958,39.364256],[-75.3929135,39.3642745],[-75.3929487,39.3642828],[-75.3930165,39.3642822],[-75.3931607,39.3642573],[-75.3931892,39.3642588],[-75.3932573,39.364277],[-75.3932748,39.3642768],[-75.3933903,39.3642335],[-75.3934384,39.3642348],[-75.3934912,39.3642497],[-75.3935023,39.3642632],[-75.3935003,39.3642785],[-75.3934742,39.364294],[-75.3934743,39.3643025],[-75.3934832,39.3643109],[-75.3936593,39.3643895],[-75.3936809,39.3644101],[-75.3936874,39.3644325],[-75.3936897,39.3644582],[-75.3936906,39.3645256],[-75.393693,39.3645481],[-75.3937015,39.3645673],[-75.3937307,39.3645895],[-75.3937819,39.3646179],[-75.3938367,39.3647313],[-75.3938398,39.3647649],[-75.393819,39.3648206],[-75.3937744,39.3649398],[-75.393752,39.3650934],[-75.3937498,39.3651334],[-75.3937636,39.3651564],[-75.3937747,39.3651773],[-75.3937829,39.3651881],[-75.3938353,39.3652567],[-75.3938492,39.3652839],[-75.3938495,39.3653071],[-75.3938389,39.3653303],[-75.3938008,39.3653793],[-75.393755,39.3654381],[-75.3936934,39.3655129],[-75.3936883,39.365528],[-75.3936885,39.3655404],[-75.393694,39.3655582],[-75.3937226,39.36558],[-75.3937639,39.3656168],[-75.3937693,39.3656291],[-75.3937711,39.3656333],[-75.3937714,39.3656525],[-75.3937647,39.3656856],[-75.3937355,39.3657546],[-75.3937343,39.3658041],[-75.393744,39.3658673],[-75.3937731,39.3659262],[-75.3938038,39.3659686],[-75.3938079,39.3659746],[-75.3938516,39.3660397],[-75.3938628,39.3660822],[-75.3938649,39.3661125],[-75.3938635,39.3661386],[-75.3938549,39.3661579],[-75.3938392,39.3661759],[-75.3938234,39.3661857],[-75.3938007,39.3661894],[-75.3937085,39.3662044],[-75.3936979,39.3662128],[-75.3936893,39.366228],[-75.3936937,39.3662939],[-75.3937105,39.3663653],[-75.3937721,39.3664735],[-75.3938605,39.366686],[-75.3939057,39.3667225],[-75.3939308,39.3667223],[-75.3939531,39.36672],[-75.393978,39.3667003],[-75.3939893,39.3666841],[-75.3939917,39.3666806],[-75.3940164,39.3666479],[-75.3940414,39.3666369],[-75.3940554,39.3666368],[-75.3940694,39.3666454],[-75.3941096,39.3667296],[-75.394118,39.366736],[-75.3941713,39.3667486],[-75.3941966,39.3667679],[-75.3942109,39.3667938],[-75.3942176,39.3668783],[-75.3942318,39.3668955],[-75.3942571,39.3669062],[-75.3943186,39.3669166],[-75.394344,39.3669337],[-75.3943497,39.3669488],[-75.39435,39.3669662],[-75.3942666,39.3669993],[-75.39425,39.3670125],[-75.3942237,39.3670584],[-75.3941927,39.3671126],[-75.3941929,39.3671299],[-75.3942127,39.3671493],[-75.3942833,39.3672152],[-75.3943187,39.3672482],[-75.3943388,39.3672979],[-75.394338,39.3674518],[-75.3943244,39.3674801],[-75.3943079,39.3674997],[-75.3942334,39.3675653],[-75.3942224,39.3675849],[-75.3942254,39.3675957],[-75.3942397,39.3676238],[-75.3942372,39.3676454],[-75.3942262,39.3676607],[-75.3941679,39.367685],[-75.3941457,39.3676982],[-75.3941181,39.3677266],[-75.394058,39.3678311],[-75.3940415,39.3678485],[-75.3939309,39.3679361],[-75.3939226,39.3679426],[-75.3939227,39.3679491],[-75.3939368,39.3679577],[-75.3939954,39.3679594],[-75.3940179,39.3679701],[-75.3940181,39.3679853],[-75.3940184,39.3680091],[-75.3939803,39.3680831],[-75.3939142,39.3681595],[-75.3936979,39.3683844],[-75.3936403,39.3684672],[-75.393616,39.3685302],[-75.3935974,39.3686041],[-75.3935815,39.3686714],[-75.3935979,39.3696293],[-75.3935981,39.3696488],[-75.3935679,39.3696902],[-75.3935653,39.3697075],[-75.3935715,39.3697487],[-75.3935942,39.3697767],[-75.3936223,39.369796],[-75.3936476,39.3698044],[-75.3937202,39.3698039],[-75.3937426,39.3698146],[-75.3937512,39.3698318],[-75.3937515,39.3698535],[-75.3937415,39.3699468],[-75.3937335,39.3699707],[-75.3937309,39.369988],[-75.3937556,39.3700305],[-75.3937937,39.3700959],[-75.393836,39.3701303],[-75.393937,39.370162],[-75.3939704,39.3701596],[-75.3940761,39.3701198],[-75.3940861,39.3701176],[-75.3941067,39.370113],[-75.3941185,39.3701129],[-75.3941342,39.3701264],[-75.3941833,39.3701649],[-75.394226,39.3702096],[-75.3942365,39.3702356],[-75.3942367,39.3702494],[-75.3942251,39.3702599],[-75.3942213,39.3702633],[-75.3941395,39.3702898],[-75.3941286,39.3702984],[-75.3941287,39.3703088],[-75.3941311,39.3703225],[-75.3941739,39.3703687],[-75.3941895,39.3703772],[-75.3942229,39.3703856],[-75.3942829,39.3703955],[-75.3943009,39.3704091],[-75.3943554,39.3705069],[-75.3943556,39.3705241],[-75.3943494,39.3705621],[-75.3943497,39.3705793],[-75.3943542,39.3705896],[-75.3943744,39.3706066],[-75.394425,39.370624],[-75.3944624,39.3706369],[-75.3944952,39.3706481],[-75.3945012,39.3706629],[-75.3944742,39.3707791],[-75.3944716,39.3708377],[-75.3944659,39.3709172],[-75.3944611,39.3709341],[-75.394462,39.3709366],[-75.3944578,39.3709626],[-75.3944448,39.370976],[-75.3943829,39.3710114],[-75.3943697,39.3710218],[-75.3943632,39.371034],[-75.3943634,39.3710477],[-75.3943662,39.3710942],[-75.3943621,39.3711235],[-75.3943098,39.3711997],[-75.3942944,39.3712085],[-75.3942246,39.3712176],[-75.3941871,39.37123],[-75.3941584,39.3712491],[-75.3941343,39.3712734],[-75.3941076,39.371359],[-75.3940874,39.3714237],[-75.3940387,39.3716049],[-75.3940118,39.3717567],[-75.3939943,39.3718717],[-75.39398,39.3719654],[-75.3939832,39.3720412],[-75.3939993,39.3720859],[-75.3940151,39.3721047],[-75.3940375,39.3721218],[-75.3940801,39.3721507],[-75.3940959,39.372173],[-75.3941006,39.3721954],[-75.3941054,39.3722246],[-75.394111,39.3723985],[-75.3941112,39.3724141],[-75.3941313,39.3724311],[-75.394147,39.3724396],[-75.3942184,39.3724666],[-75.3942386,39.3724837],[-75.3942411,39.3725061],[-75.3942413,39.3725216],[-75.394231,39.3725888],[-75.3942312,39.3726061],[-75.3942358,39.3726198],[-75.39439,39.3726996],[-75.394408,39.3727201],[-75.3944149,39.3727373],[-75.3944152,39.372758],[-75.3944151,39.3731505],[-75.3944381,39.3732085],[-75.3944546,39.3732193],[-75.3945437,39.3732295],[-75.3945742,39.3732383],[-75.3945954,39.3732472],[-75.3946357,39.3732869],[-75.3947047,39.3733736],[-75.394726,39.3733952],[-75.3947474,39.3734169],[-75.3947686,39.3734276],[-75.3948318,39.3734344],[-75.3948507,39.3734415],[-75.3948805,39.3734648],[-75.3949405,39.3735117],[-75.3949758,39.3735241],[-75.3949922,39.373524],[-75.3950226,39.3735237],[-75.3950766,39.3735037],[-75.3950925,39.3734978],[-75.3951065,39.3734977],[-75.3951417,39.3734992],[-75.3951911,39.3735243],[-75.3952171,39.3735404],[-75.3952524,39.3735529],[-75.3952898,39.3735526],[-75.3953389,39.3735504],[-75.3954802,39.3735239],[-75.3956279,39.3735372],[-75.395656,39.3735425],[-75.3956656,39.3735569],[-75.3956658,39.3735751],[-75.3956603,39.3735813],[-75.3956381,39.3736062],[-75.3956172,39.3736209],[-75.3956086,39.3736229],[-75.3955775,39.3736303],[-75.3954793,39.3736329],[-75.3954629,39.3736366],[-75.3954466,39.3736422],[-75.3954351,39.373655],[-75.3954311,39.3737077],[-75.3954223,39.373755],[-75.3953649,39.3738463],[-75.3953674,39.3738535],[-75.3953768,39.3738589],[-75.3953865,39.3738589],[-75.3954026,39.3738587],[-75.3954307,39.373864],[-75.395452,39.373882],[-75.3954639,39.3738964],[-75.3954711,39.3739109],[-75.3954736,39.3739254],[-75.3954767,39.3739781],[-75.3954815,39.3739889],[-75.3955025,39.3739906],[-75.3955563,39.3739811],[-75.3955631,39.3739814],[-75.3956547,39.3739858],[-75.3956875,39.3739928],[-75.3957087,39.3740017],[-75.3957197,39.3740135],[-75.3957206,39.3740143],[-75.3957707,39.3740903],[-75.3957709,39.3741084],[-75.3957689,39.3741375],[-75.3957714,39.3741484],[-75.3958068,39.3741681],[-75.3958255,39.374168],[-75.3958697,39.3741476],[-75.3958838,39.3741493],[-75.3958956,39.3741547],[-75.3959195,39.3741981],[-75.3959313,39.3742053],[-75.3959807,39.3742249],[-75.3960205,39.3742246],[-75.3960485,39.3742153],[-75.3960501,39.3742143],[-75.3960694,39.3742024],[-75.3961103,39.3741076],[-75.3961312,39.3740849],[-75.3961473,39.3740674],[-75.3961705,39.3740563],[-75.3962009,39.3740506],[-75.3962313,39.3740504],[-75.3964505,39.3741185],[-75.3965583,39.3741442],[-75.3965976,39.3741518],[-75.3966249,39.3741548],[-75.3966539,39.374158],[-75.3966677,39.3741645],[-75.3966763,39.3741737],[-75.3966961,39.3742556],[-75.3966943,39.374263],[-75.3966929,39.3742689],[-75.3966828,39.3742809],[-75.3966525,39.3743115],[-75.396634,39.3743328],[-75.3966291,39.3743461],[-75.3966275,39.3743594],[-75.3966282,39.3744163],[-75.3966268,39.3744322],[-75.3966171,39.3744746],[-75.3966173,39.3744931],[-75.3966216,39.3745],[-75.3634627,39.3903876],[-75.3404511,39.394564],[-75.3348159,39.3917821],[-75.3285506,39.3915543]]]}}
