{"type":"FeatureCollection","name":"greenwich_township_road_centerlines","metadata":{"source":"NJOGIS NG911 Road Centerlines (Tran_road)","url":"https://services2.arcgis.com/XVOqAjTOJ5P6ngMu/arcgis/rest/services/Tran_road/FeatureServer/0","query_url":"https://services2.arcgis.com/XVOqAjTOJ5P6ngMu/arcgis/rest/services/Tran_road/FeatureServer/0/query","retrieved_at_utc":"2026-09-04T20:05:11.533390+00:00","source_last_edit_date":1785341586960,"out_sr":4326,"query_envelope_wgs84":[-75.3966961,39.3407516,-75.3285506,39.394564],"spatial_relationship":"esriSpatialRelIntersects","boundary_file":"greenwich_township_boundary.geojson","boundary_sha256":"950365add705636bd4f3781e841c058802824a18e5c87e7e4da63095cfd9d929","fields":["OBJECTID","PRIMENAME","ELEVTYP_F","ELEVTYP_T"],"feature_count":29,"complete_objectid_inventory_verified":true,"municipal_clipping":"Envelope selection only; clip against the actual municipal boundary in the application."},"features":[{"type":"Feature","id":46147,"properties":{"OBJECTID":46147,"PRIMENAME":"Laning Wharf Road","ELEVTYP_F":0,"ELEVTYP_T":0},"geometry":{"type":"LineString","coordinates":[[-75.3254178471342,39.3754192021056],[-75.325487563416,39.3754285126246],[-75.3255481165111,39.3754402860133],[-75.32560583729,39.3754587263877],[-75.3256595176537,39.3754834486795],[-75.3257080303368,39.3755139348327],[-75.3257503580364,39.3755495435053],[-75.3257786453063,39.3755814847065],[-75.3258265583955,39.3756370196963],[-75.326143543754,39.376024629128],[-75.3267808863327,39.3768054548609],[-75.3274071804506,39.3775814236981],[-75.3278899202898,39.378189365865],[-75.3283135271264,39.3787075724159],[-75.328710709655,39.3792435084085],[-75.3290873116709,39.3797063195226]]}},{"type":"Feature","id":72318,"properties":{"OBJECTID":72318,"PRIMENAME":"Pier Road","ELEVTYP_F":0,"ELEVTYP_T":0},"geometry":{"type":"LineString","coordinates":[[-75.3496335460233,39.3853338736131],[-75.3496323092524,39.385231883011],[-75.349631053516,39.3851283278799],[-75.3496204069717,39.3850848877366],[-75.3496091171956,39.3850437312784],[-75.3495770619034,39.3849590995637],[-75.3495763482259,39.3849572977975],[-75.3495483369006,39.3848865230672],[-75.3494998357659,39.3847557470205],[-75.3494605344001,39.3846103524813],[-75.3493976540391,39.3844578544083],[-75.3493112213857,39.3842945998782],[-75.3492726350658,39.3842111128975],[-75.3492198722798,39.3841168028336],[-75.3491766607036,39.3840369734402]]}},{"type":"Feature","id":94851,"properties":{"OBJECTID":94851,"PRIMENAME":"Ye Greate Street","ELEVTYP_F":0,"ELEVTYP_T":0},"geometry":{"type":"LineString","coordinates":[[-75.3419079535424,39.3938942289471],[-75.342230686267,39.3943429955462]]}},{"type":"Feature","id":116979,"properties":{"OBJECTID":116979,"PRIMENAME":"Delaware Avenue","ELEVTYP_F":0,"ELEVTYP_T":0},"geometry":{"type":"LineString","coordinates":[[-75.3496335460233,39.3853338736131],[-75.3496797980749,39.3853463297229],[-75.349714897564,39.3853523059352],[-75.3497605343349,39.3853548011078],[-75.3498239330691,39.3853515095931],[-75.3499386979833,39.3853389205391],[-75.3500651656074,39.3853197935401],[-75.3502995190716,39.3852925744421],[-75.3504728003578,39.385262176535],[-75.3507304748672,39.3852238586632],[-75.3510630984879,39.3851777433942],[-75.3514471519554,39.3851130207156],[-75.3523889599955,39.3849822703284]]}},{"type":"Feature","id":129523,"properties":{"OBJECTID":129523,"PRIMENAME":"Ye Greate Street","ELEVTYP_F":0,"ELEVTYP_T":0},"geometry":{"type":"LineString","coordinates":[[-75.3380110527458,39.3884661676698],[-75.3381749245952,39.3886802697736],[-75.3385615313935,39.3892165009778],[-75.3388716367387,39.3896367585442],[-75.3388881191731,39.3896598673745]]}},{"type":"Feature","id":131871,"properties":{"OBJECTID":131871,"PRIMENAME":"Bacons Neck Road","ELEVTYP_F":0,"ELEVTYP_T":0},"geometry":{"type":"LineString","coordinates":[[-75.349544736569,39.3907900307654],[-75.3499239965223,39.3907037940691],[-75.3514451767362,39.3903539476047],[-75.3517869592556,39.3902822565538],[-75.3521100436136,39.3902179779893],[-75.3523114556046,39.3901837195147],[-75.3524661380006,39.3901680070581],[-75.3525598693616,39.3901563658056],[-75.352714720129,39.3901516341605],[-75.3530151077738,39.3901530290469],[-75.3534563993993,39.3901607472643],[-75.3540197180346,39.3901675411343],[-75.3558320468058,39.3902125138157],[-75.356813332995,39.3902380458152],[-75.3586116376093,39.3902903540958],[-75.3600390138359,39.3903308248924],[-75.3609731825261,39.3903457426506],[-75.3613722307788,39.39035942738]]}},{"type":"Feature","id":168486,"properties":{"OBJECTID":168486,"PRIMENAME":"Bacons Neck Road","ELEVTYP_F":0,"ELEVTYP_T":0},"geometry":{"type":"LineString","coordinates":[[-75.3613722307788,39.39035942738],[-75.3618466068725,39.3903757100183],[-75.3625274182755,39.3903925206051],[-75.3632365370622,39.3904236675599],[-75.3634759757921,39.3904291664297],[-75.3637060828465,39.3904383858629],[-75.3638656041626,39.3904336047022],[-75.3640297404848,39.3904214314399],[-75.3641375067131,39.3904060518779],[-75.3642357617201,39.3903798433706],[-75.3643433930198,39.3903535371996],[-75.3644556042336,39.3903199203608],[-75.3645443137834,39.390282855095],[-75.3646610403741,39.3902309744222],[-75.3648663516827,39.3901347804337],[-75.3651323316105,39.3900089486494],[-75.3654449915057,39.389860942121],[-75.3656592990325,39.3897615937274],[-75.3658043380651,39.389694356356],[-75.3661683001577,39.3895204865055],[-75.3663923474565,39.3894204715368],[-75.3667096268912,39.3892688024555],[-75.367185646724,39.3890467331499],[-75.367535564686,39.3888765884614],[-75.3678807752839,39.3887064778356],[-75.3680953531897,39.3885992536862],[-75.368305088546,39.3884811648832],[-75.3689346877766,39.3881559435848],[-75.3695174694501,39.387842051148],[-75.370221634439,39.3874762347241],[-75.3706225654162,39.3872583098033],[-75.3713219575073,39.3868852458987],[-75.3717557043291,39.38666344746]]}},{"type":"Feature","id":188349,"properties":{"OBJECTID":188349,"PRIMENAME":"Park Drive","ELEVTYP_F":0,"ELEVTYP_T":0},"geometry":{"type":"LineString","coordinates":[[-75.342230686267,39.3943429955462],[-75.3411769577557,39.3947809086777],[-75.3409296154219,39.394899247527],[-75.3409111328712,39.3949248598271],[-75.3408973129196,39.3949468154662],[-75.34089761912,39.394972319887],[-75.3409071711939,39.394986802131],[-75.3409263093538,39.395015794295],[-75.3409596614036,39.3950556390643],[-75.3412887269948,39.3954866529803],[-75.3416987764709,39.396019078647]]}},{"type":"Feature","id":220989,"properties":{"OBJECTID":220989,"PRIMENAME":"Ye Greate Street","ELEVTYP_F":0,"ELEVTYP_T":0},"geometry":{"type":"LineString","coordinates":[[-75.3388881191731,39.3896598673745],[-75.3396593529183,39.3907418644343],[-75.3404517650645,39.3918470127456],[-75.3411775001056,39.3928724666507],[-75.3414830099621,39.3932963739693],[-75.3419079535424,39.3938942289471]]}},{"type":"Feature","id":254407,"properties":{"OBJECTID":254407,"PRIMENAME":"Caviar Road","ELEVTYP_F":0,"ELEVTYP_T":0},"geometry":{"type":"LineString","coordinates":[[-75.3947798284014,39.3840005735444],[-75.3947181688402,39.3837241817282],[-75.3945919135457,39.3832655119708],[-75.3945064220296,39.3829429578738],[-75.394485895122,39.3828648384075],[-75.394481834999,39.3828017480453],[-75.3944907611528,39.3827360050236],[-75.394516153192,39.3826853181354],[-75.3945450249722,39.3826522589649],[-75.3945934900389,39.3826241007421],[-75.3947003089247,39.3825803660206],[-75.394998371714,39.3824770632799],[-75.3953190194348,39.38236095609],[-75.3957432960698,39.3822036347715],[-75.3967600109305,39.3818094431034],[-75.3974820452147,39.3815261037234],[-75.3984567249588,39.381152400859],[-75.3988000127166,39.3810260060686],[-75.3992177649617,39.3808687504259],[-75.3995286051485,39.3807476549501],[-75.3997130689122,39.3806704781338],[-75.4001368064829,39.3804727574117]]}},{"type":"Feature","id":266279,"properties":{"OBJECTID":266279,"PRIMENAME":"Bayside Road","ELEVTYP_F":0,"ELEVTYP_T":0},"geometry":{"type":"LineString","coordinates":[[-75.3947798284014,39.3840005735444],[-75.3947992193666,39.3839896888716],[-75.3948417489319,39.383973244956],[-75.3949099326404,39.3839626164451],[-75.3957449758121,39.3838627586886],[-75.3981462028548,39.3835841300623],[-75.3995985357354,39.3834087781633],[-75.4003816558361,39.3833193638786],[-75.4011257162682,39.3832328014702],[-75.4018925256238,39.3831435312739],[-75.4020336738441,39.3831272327499],[-75.4025488727986,39.3830677419392],[-75.4036666493059,39.3829403740682],[-75.4041767328589,39.3828783143219],[-75.4050377210474,39.3827731358179],[-75.4057134580791,39.3826870755317],[-75.4060207711547,39.382640778706]]}},{"type":"Feature","id":270649,"properties":{"OBJECTID":270649,"PRIMENAME":"Ye Greate Street","ELEVTYP_F":0,"ELEVTYP_T":0},"geometry":{"type":"LineString","coordinates":[[-75.3359778314129,39.3858843877545],[-75.3363351144869,39.3863261683312],[-75.3366019505582,39.3866629205587],[-75.3375789312735,39.3879015163046],[-75.3380110527458,39.3884661676698]]}},{"type":"Feature","id":277500,"properties":{"OBJECTID":277500,"PRIMENAME":"Tindall Island Road","ELEVTYP_F":0,"ELEVTYP_T":0},"geometry":{"type":"LineString","coordinates":[[-75.3717557043291,39.38666344746],[-75.3714670165903,39.3863072543909],[-75.3711357453416,39.3858819712121],[-75.3711032547638,39.3858402622024],[-75.3708385812149,39.3854912453194],[-75.3707592429979,39.3853933544543],[-75.3707095781407,39.3853230000751],[-75.3706661997053,39.3852374699424],[-75.3706163428224,39.3851545410939],[-75.3705496523587,39.3850236911854],[-75.3704895611004,39.3849029220946],[-75.3704422735221,39.3847618777894],[-75.370301406763,39.3844245361977],[-75.3701232041095,39.3839637300218],[-75.3699117985648,39.3834501533374],[-75.3697473480363,39.3830422882393],[-75.3696465400022,39.3827905289952],[-75.3695190758458,39.3824833705587],[-75.3693814742193,39.3821460312142],[-75.36923363928,39.3817708513521],[-75.3691262392237,39.3815065109163],[-75.3690188086629,39.3812396438898],[-75.3688847475237,39.3809249565166],[-75.368803946228,39.3807084100863],[-75.3686562392553,39.3803458574434],[-75.3683643514299,39.3796308581409],[-75.368149529207,39.3791021475525],[-75.3678809250224,39.3784324403215],[-75.3676162365645,39.3778157198733],[-75.3675356646591,39.3776142714975],[-75.3674788721263,39.3774960297939],[-75.3674154448535,39.3773677063729],[-75.3673453254507,39.3772217512565],[-75.3672853716581,39.3771110843078],[-75.367252112539,39.3770507362836],[-75.3672476080856,39.3770383597183]]}},{"type":"Feature","id":326726,"properties":{"OBJECTID":326726,"PRIMENAME":"Bacons Neck Road","ELEVTYP_F":0,"ELEVTYP_T":0},"geometry":{"type":"LineString","coordinates":[[-75.3419079535424,39.3938942289471],[-75.3421321906441,39.3938088384415],[-75.3427534092944,39.3935494107775],[-75.3432904897216,39.3933233458414],[-75.3443224035534,39.3928751651198],[-75.3448734689094,39.3926417148509],[-75.3454103597941,39.3924010893298],[-75.346283592327,39.3920268852771],[-75.3468206056655,39.3917971797932],[-75.3472968032379,39.3915861178164],[-75.3476936547942,39.3914120390775],[-75.3479878799235,39.3912897203049],[-75.348282059798,39.391163749335],[-75.3485110647772,39.3910819356493],[-75.3487026102437,39.3910041006038],[-75.3489083431308,39.3909406868928],[-75.3492125491869,39.390865598752],[-75.349544736569,39.3907900307654]]}},{"type":"Feature","id":327791,"properties":{"OBJECTID":327791,"PRIMENAME":"Ye Greate Street","ELEVTYP_F":0,"ELEVTYP_T":0},"geometry":{"type":"LineString","coordinates":[[-75.342230686267,39.3943429955462],[-75.3425333063908,39.3947637906467],[-75.3429391640651,39.3953326772975],[-75.3434499527314,39.3960428303449],[-75.3444145075174,39.3973979246735],[-75.3447391630795,39.3978508424116],[-75.3451641188464,39.3984450608942],[-75.3453123457299,39.3986697818336],[-75.3453651146132,39.3987640942747],[-75.3453989541877,39.3988439650476],[-75.3454138727851,39.3989130729127],[-75.3454193354261,39.3989785706864],[-75.3454061756252,39.3990551582228],[-75.3453743489217,39.3991391579359],[-75.3453236018544,39.3992123677009],[-75.3452633100067,39.3992747184751],[-75.3451611111054,39.3993628811733],[-75.3449750714865,39.3995062618958],[-75.3446308844303,39.3997673691908],[-75.3441099137116,39.4001681358489],[-75.3435518673383,39.4006055480742],[-75.3426682429243,39.4012966756337],[-75.3422868959449,39.4015944521213],[-75.3421894052236,39.4016862019664],[-75.3421245253856,39.4017558599515],[-75.3420784000485,39.4018254109777],[-75.342041686254,39.4018948650405],[-75.342023894934,39.4019750834256],[-75.3420391611975,39.4020733196364],[-75.34207784457,39.4021677354697],[-75.3421496653786,39.402283793262],[-75.342245035809,39.4024069291267],[-75.3423264102544,39.4025374427796],[-75.3424456360117,39.4026932150023],[-75.3426127855189,39.4029287296013],[-75.3427514096786,39.403131668362],[-75.3430902611202,39.4035953877562],[-75.3434342110015,39.4040882275162],[-75.3435530699777,39.4042511957634]]}},{"type":"Feature","id":334947,"properties":{"OBJECTID":334947,"PRIMENAME":"Pier Road","ELEVTYP_F":0,"ELEVTYP_T":0},"geometry":{"type":"LineString","coordinates":[[-75.3496335460233,39.3853338736131],[-75.3496380946405,39.3857089719267],[-75.3496098308349,39.3864739655803],[-75.3495889239885,39.3874575099497],[-75.3495746175134,39.3882151528314],[-75.3495429195909,39.3890821707969],[-75.3495306250065,39.3896176803609],[-75.3495164749242,39.3900001905849],[-75.3495035532368,39.3904810395751],[-75.349500790703,39.3906413202923],[-75.349511041292,39.390710434779],[-75.3495208144454,39.3907431457045],[-75.349544736569,39.3907900307654]]}},{"type":"Feature","id":365640,"properties":{"OBJECTID":365640,"PRIMENAME":"Gum Tree Corner Road","ELEVTYP_F":0,"ELEVTYP_T":0},"geometry":{"type":"LineString","coordinates":[[-75.3613722307788,39.39035942738],[-75.3614327576029,39.390691993139],[-75.361487727474,39.3909610937591],[-75.3615013564411,39.3910338834524],[-75.3615279087341,39.3911756946689],[-75.3615880864775,39.3914884393104],[-75.3616478719994,39.3917720833532],[-75.3616783647387,39.3919612484101],[-75.3617175625469,39.3920957127841],[-75.3617758157899,39.3922518899346],[-75.3618194944103,39.3923680891955],[-75.3618720119344,39.3924405682347],[-75.3619535901641,39.3925856450751],[-75.3619840219545,39.3926218356326],[-75.3620631529474,39.3927159362061],[-75.3621680899606,39.3928499123886],[-75.3623109806594,39.393020041208],[-75.3624203656411,39.3931357811325],[-75.3625585411014,39.393302265784],[-75.3629726622555,39.3937653966865],[-75.3633297258208,39.3941779092306],[-75.3640436466268,39.3949738839443],[-75.3642770940157,39.3952525856779],[-75.3645722187163,39.3955854926772],[-75.3649817601214,39.3960595226471],[-75.3653055860278,39.3964322451585],[-75.3654577793935,39.3965950251345],[-75.3656151629183,39.3967941453423],[-75.3656682739181,39.3969139525572],[-75.3656979241642,39.3970338793714],[-75.3656993202418,39.3971468227603],[-75.3656861378352,39.397219760925],[-75.3656541213395,39.3972891883505],[-75.3655944688787,39.3973988522135],[-75.3654971501577,39.3975015746792],[-75.365395204857,39.3976079841553],[-75.3653164941577,39.3976959618448],[-75.365265858171,39.3977764820763],[-75.3652158527261,39.3979079558273],[-75.3652079698154,39.3980318406733],[-75.3652141609864,39.398151996997],[-75.3652672708702,39.3982717764504],[-75.3653342492608,39.3983769014661],[-75.3654111611367,39.3985183586171],[-75.3655977157568,39.3988010580569],[-75.3659568723623,39.3993738336632],[-75.3663302993204,39.3999610539729],[-75.366761337632,39.400653493947],[-75.3671681558978,39.4012841731052],[-75.3674697400805,39.4017553465537],[-75.3675751529249,39.4019257759106],[-75.36769470494,39.4021033483097],[-75.3678766981051,39.4023933525988],[-75.3679063488595,39.4024401225375],[-75.3680490551326,39.4026652254658],[-75.3681470155422,39.4028337876041]]}},{"type":"Feature","id":401947,"properties":{"OBJECTID":401947,"PRIMENAME":"Hancocks Harbor Road","ELEVTYP_F":0,"ELEVTYP_T":0},"geometry":{"type":"LineString","coordinates":[[-75.3672476080856,39.3770383597183],[-75.3671706595759,39.3770437659364],[-75.367047184708,39.3770573151181],[-75.3669009918413,39.3770760868418],[-75.3667289513027,39.3771101778325],[-75.3663266694166,39.3772066068887],[-75.3657329160159,39.3773423482159],[-75.3652269312527,39.3774723822928],[-75.3649090373632,39.3775530222795],[-75.3647307177844,39.3775947326102],[-75.3647305244931,39.3775947763837],[-75.3644968930667,39.3776419409108],[-75.3641593516784,39.3777101228196],[-75.363542492846,39.3778232914288],[-75.3632762919484,39.3778732318347],[-75.363003520351,39.3779181966789],[-75.3626821237197,39.3779761234144],[-75.362347733808,39.3780392250974],[-75.3620068393863,39.3780998211787],[-75.3618056018028,39.3781392007351],[-75.3616366515987,39.3781631851173],[-75.3615994846315,39.3781694325552],[-75.3615424936326,39.3781790110484],[-75.3614678326772,39.3781921937721],[-75.3613800554941,39.3782004210344],[-75.3612988239221,39.3782086006792],[-75.3611882397483,39.3782119450055],[-75.3610841330156,39.3782127154848],[-75.3609442579863,39.3782162493163],[-75.360833732369,39.3782271982156],[-75.3607493383479,39.3782429782924],[-75.3606551493777,39.3782563049529],[-75.3605448752136,39.3782849053385],[-75.360415167013,39.3783212006257],[-75.3603307689661,39.3783395062355],[-75.3602626160968,39.3783526400663],[-75.3601649828115,39.3783533618631],[-75.360064099096,39.3783515817979],[-75.3599404654669,39.3783524955889],[-75.3598461533875,39.3783557183789],[-75.3597453316374,39.3783589891919],[-75.3596347742769,39.3783673843579],[-75.359524313655,39.3783808303171],[-75.3594171075723,39.3783942791568],[-75.3593098388385,39.3784026217998],[-75.3592057933669,39.378408414736],[-75.3590886948857,39.378414303954],[-75.3589747944109,39.3784126460734],[-75.3588576072436,39.3784084595114],[-75.3586524631357,39.3783948448414],[-75.3585058937517,39.3783832964274],[-75.3583496223726,39.3783768719137],[-75.3581868115768,39.3783679687144],[-75.3580566384318,39.3783664029291],[-75.3578451082515,39.3783629110312],[-75.3576563241808,39.3783592501894],[-75.3575326595569,39.3783576358435],[-75.3574024558646,39.3783535707682],[-75.3572526630553,39.3783445433099],[-75.3570996163714,39.3783355675517],[-75.3569660654957,39.3783239212989],[-75.3568325447203,39.3783148284022],[-75.3566989321659,39.3782981297824],[-75.3565523323938,39.378284053322],[-75.356418781707,39.3782724073396],[-75.356220207111,39.3782637646133],[-75.3560639373019,39.3782573361151]]}},{"type":"Feature","id":402013,"properties":{"OBJECTID":402013,"PRIMENAME":"Wetherill Road","ELEVTYP_F":0,"ELEVTYP_T":0},"geometry":{"type":"LineString","coordinates":[[-75.3828907073495,39.396406200747],[-75.3829088321524,39.3963675835504],[-75.382924407005,39.396311895146],[-75.3829398559681,39.3962461306344],[-75.3829580475206,39.3961424565684],[-75.3829696670539,39.3960312540879],[-75.3829982964843,39.3959780194124],[-75.3830431097074,39.3959145578103],[-75.3831171767627,39.3958558716815],[-75.3831882178943,39.3958098653797],[-75.383288681731,39.3957763204835],[-75.3834152814489,39.3957500715622],[-75.3844418329129,39.3955983486344],[-75.385595045959,39.3954228915953],[-75.3859769477773,39.3953645479451],[-75.386082291665,39.3953484548829],[-75.38667683148,39.3952631502284],[-75.3868749761978,39.3952338543896],[-75.3869918688244,39.3952152817903],[-75.3871088641864,39.3951992340859],[-75.3872029136515,39.3951707583919],[-75.3872773631787,39.3951398522589],[-75.3873352851523,39.39508639312],[-75.3873800510566,39.3950279818064],[-75.3873987545492,39.394959666086],[-75.3873979865476,39.3948990492452],[-75.3873873567622,39.39483095726],[-75.387349442346,39.3946620631661],[-75.3872591784803,39.3942182952754],[-75.3872002294132,39.3939308698286],[-75.3870405193168,39.3931416584099],[-75.387005921603,39.3929803171523],[-75.386988208187,39.3928668120709],[-75.3869871531003,39.3927834913465],[-75.3869994690512,39.3927278263223],[-75.3870411819834,39.3926770446111],[-75.3870861378543,39.3926337326764],[-75.3871637132014,39.3925927266162],[-75.3872512478883,39.3925642735375],[-75.3873777129739,39.3925279731043],[-75.3875398875989,39.3924837948128],[-75.3879746812871,39.3923794669046],[-75.388143429325,39.3923403171204],[-75.3882926112516,39.3923012615334],[-75.388406121514,39.3922675846906],[-75.3884870786769,39.3922366551127],[-75.3885483772513,39.3921957724305],[-75.3885965945248,39.3921474662838],[-75.3886349503155,39.3920916022003],[-75.388653808118,39.3920384407543],[-75.3886628048434,39.3919777493115],[-75.3886555612865,39.3919172089374],[-75.3886385449659,39.3918617686774],[-75.3886148950972,39.3917937762187],[-75.3885745530286,39.3916930461556],[-75.3884332980107,39.3913330242038],[-75.3881039758279,39.3905122997439],[-75.3879424916073,39.3900968612703],[-75.3877946365085,39.3897293113995],[-75.3873974491551,39.3886893994794],[-75.387021333233,39.3877730426325],[-75.3868232945123,39.3872947594924],[-75.3865941115266,39.3867429111344]]}},{"type":"Feature","id":402040,"properties":{"OBJECTID":402040,"PRIMENAME":"Tindall Island Road","ELEVTYP_F":0,"ELEVTYP_T":0},"geometry":{"type":"LineString","coordinates":[[-75.3717557043291,39.38666344746],[-75.3720898139066,39.3871125675074],[-75.3722159668647,39.3872868731759],[-75.3724909422921,39.3876668064243],[-75.3729641053341,39.3883479545579],[-75.3734082974634,39.3889637806554],[-75.3734150342639,39.3889728415191],[-75.3737233598878,39.3893875312262],[-75.3743204008461,39.3902170761487],[-75.3744454363277,39.3904005585504]]}},{"type":"Feature","id":402101,"properties":{"OBJECTID":402101,"PRIMENAME":"Ragged Island Road","ELEVTYP_F":0,"ELEVTYP_T":0},"geometry":{"type":"LineString","coordinates":[[-75.3672476080856,39.3770383597183],[-75.3672318987105,39.3769953156091],[-75.3672116540098,39.3769373972788],[-75.3672009542687,39.3768617262641],[-75.3671966691335,39.3767784291213],[-75.3671987979035,39.3766874509081],[-75.3672072172594,39.3765788271387],[-75.3672259936765,39.376518092171],[-75.3672542164276,39.376434552736],[-75.3672761539668,39.3763661879541],[-75.3673079468635,39.3763053559518],[-75.3673333888454,39.3762572003118],[-75.3673751636878,39.3762139475047],[-75.3674201890618,39.3761731962567],[-75.3674686290656,39.3761425786085],[-75.3675479541818,39.3761034668505],[-75.3676076859036,39.3760733135336],[-75.3676885983073,39.3760424266393],[-75.3677665181251,39.3760241640147],[-75.3678701522945,39.3759855012951],[-75.3679996957923,39.3759365699085],[-75.3681259224036,39.3758826106112],[-75.3682521484728,39.3758286232569],[-75.3684302247394,39.3757565681527],[-75.3685222979246,39.3757237822958],[-75.368553321759,39.3757127349752],[-75.3686666857412,39.3756714460889],[-75.3687962280789,39.3756225129247],[-75.3689094988547,39.3755737290507],[-75.3689806552357,39.375537806651],[-75.3690299310294,39.3755061669249],[-75.3690676697675,39.3754713173685],[-75.3690989946217,39.3754298994268],[-75.3691186455263,39.3753827477889],[-75.3691308754556,39.375322033482],[-75.3691367576014,39.3752714977382],[-75.3691327834975,39.3752134581955],[-75.3691254610095,39.3751478383185],[-75.3691174256111,39.3751200081733],[-75.3691050935338,39.3750772912872],[-75.3690813115788,39.3749966377027],[-75.3690477353049,39.3749135593811],[-75.3689971375267,39.3747700131319],[-75.3689365605722,39.3746063060996],[-75.3688521996163,39.3743645261586],[-75.3687213760189,39.3740473152237],[-75.3686208434308,39.3738106804113],[-75.368474438835,39.3735491289106],[-75.3683446510586,39.3733152659137],[-75.3681748718535,39.3730084482246],[-75.368041772763,39.3727670042197],[-75.3677457000594,39.3722389766503],[-75.3677456193635,39.3722388331261],[-75.3671136398737,39.3710389589747],[-75.3670796948248,39.3709759153785],[-75.3670108958163,39.3708320623856],[-75.3666826592333,39.370325681451],[-75.3666287706588,39.3702260007831],[-75.3665815941079,39.3701242910713],[-75.3665412593945,39.3700208224942],[-75.3665191732103,39.369969376328],[-75.3664901084394,39.3699200656453],[-75.3664543993711,39.3698734572495],[-75.3664124600048,39.3698300885247],[-75.3663647711843,39.3697904594247],[-75.366311882863,39.3697550279522],[-75.366254408179,39.369724200295],[-75.3661831549964,39.3696930364907],[-75.3661090718295,39.3696661400205],[-75.3660325841491,39.3696436635488],[-75.3659541287497,39.3696257371372],[-75.3658741490199,39.3696124610729],[-75.3657488401254,39.3695934608126],[-75.3656224113653,39.369579628461],[-75.3654966124064,39.3695594641529],[-75.3653724168905,39.3695339956548],[-75.3652501994906,39.3695033003559],[-75.3651303246454,39.3694674728376],[-75.3650131464696,39.3694266176686],[-75.364899021596,39.3693808556139],[-75.3647186888937,39.3693182714229],[-75.3645414581115,39.3692505654441],[-75.3643675648284,39.3691778287228],[-75.3642874671854,39.3691395789918],[-75.3642114268734,39.3690966257836],[-75.3641399089445,39.3690492250795],[-75.3640733382432,39.368997666489],[-75.3640121200715,39.3689422550806],[-75.363849994661,39.368783437362],[-75.3632433333641,39.3681513740562],[-75.3627657298913,39.3676382591166],[-75.3627188474521,39.3675978550441],[-75.3626657922801,39.3675623483598],[-75.3626074033686,39.3675323012335],[-75.3625446126664,39.3675081913733],[-75.3624784112942,39.3674904014677],[-75.361599881451,39.3673014935433],[-75.3609252403292,39.3671468346787],[-75.3608466603163,39.3671323197107],[-75.3607664887997,39.3671246642564],[-75.3606857168388,39.3671239645729],[-75.3606053448078,39.3671302249709],[-75.3605263663508,39.3671433741471],[-75.3604497530548,39.3671632454807],[-75.3590285498569,39.3676014293467],[-75.3582125020943,39.3678499529049]]}},{"type":"Feature","id":402123,"properties":{"OBJECTID":402123,"PRIMENAME":"Market Lane","ELEVTYP_F":0,"ELEVTYP_T":0},"geometry":{"type":"LineString","coordinates":[[-75.3496335460233,39.3853338736131],[-75.3495084616875,39.3853211958912],[-75.3494316526425,39.3853244202942],[-75.3491081909296,39.3853559118394],[-75.3487424874479,39.3853876836105],[-75.3483967892528,39.3854148909058],[-75.3483345416221,39.3854197892608],[-75.3480888467662,39.3854422804769],[-75.3479454266015,39.3854554080352],[-75.3477485114504,39.3854714501055],[-75.3469654860048,39.3855354137689],[-75.3460793565052,39.3856110782292],[-75.3459877744143,39.3856188036232],[-75.3452308948375,39.3856826555894],[-75.3448040263389,39.3857186651306],[-75.3439225893706,39.3857906264151],[-75.3436319888897,39.3858218373674],[-75.3434774097642,39.3858484917771],[-75.3432762258355,39.3859009363924],[-75.3430988036947,39.3859786872254],[-75.3427720677946,39.3861267088317],[-75.3423009134568,39.3863669013681],[-75.3416149683209,39.3866996352196],[-75.3409478020992,39.3870322563263],[-75.3403971977996,39.3872984950227],[-75.3394453457884,39.3877678625647],[-75.3388061029537,39.3880820668423],[-75.3380110527458,39.3884661676698]]}},{"type":"Feature","id":402167,"properties":{"OBJECTID":402167,"PRIMENAME":"Bridgeton Road","ELEVTYP_F":0,"ELEVTYP_T":0},"geometry":{"type":"LineString","coordinates":[[-75.3388881191731,39.3896598673745],[-75.3384384545662,39.3899130137609],[-75.3378838164218,39.3902411545176],[-75.3374175839361,39.3905030917433],[-75.3364946149753,39.3910378476771],[-75.3364586672385,39.3910587845678],[-75.3357348207228,39.3914803530286],[-75.3348864629217,39.3919744743596],[-75.334620723577,39.3921257141685],[-75.3345184418969,39.3922102164406],[-75.3344069067315,39.3923020606347],[-75.3342910209234,39.3924267182201],[-75.3341425007612,39.3925625371001],[-75.3340079997668,39.3927019070813],[-75.3338039469439,39.3929109647399],[-75.333358938942,39.3933803286819],[-75.3328303490346,39.3939304330487],[-75.3322890189108,39.3944790839868],[-75.3322042755116,39.3945649729682],[-75.3320942663889,39.3946792236703],[-75.3312861477168,39.3955184947847],[-75.3303308774997,39.3965050287387],[-75.3297094023727,39.3971431740788],[-75.3290875250233,39.3977787931336],[-75.3285359987329,39.3983424953896],[-75.3272558926335,39.3996554616366],[-75.3262911745536,39.4006456810828],[-75.3252591514154,39.401725656611],[-75.3247129222427,39.4022880941498]]}},{"type":"Feature","id":402235,"properties":{"OBJECTID":402235,"PRIMENAME":"Back Neck Road","ELEVTYP_F":0,"ELEVTYP_T":0},"geometry":{"type":"LineString","coordinates":[[-75.3254178471342,39.3754192021056],[-75.3255816847488,39.3753598172854],[-75.3256852455853,39.3753222789324],[-75.3257731773859,39.3752820913867],[-75.3258817241063,39.3752412070763],[-75.32601535149,39.3751881749414],[-75.3262669734027,39.3750944377204],[-75.3265460388852,39.374985157376],[-75.3268801035485,39.3748510219136],[-75.327013693431,39.3747979879994],[-75.3271551342892,39.3747356731436],[-75.3272533899123,39.3746951363517],[-75.3273239831941,39.3746547952601],[-75.327382870847,39.3746237353154],[-75.3274535740466,39.3745926192437],[-75.3275283822815,39.3745736922357],[-75.3275913415484,39.3745578959223],[-75.3276503012902,39.3745329579919],[-75.3277092246944,39.3745079932665],[-75.3277681498656,39.3744830834468],[-75.3278427769634,39.3744488369078],[-75.3279291094018,39.3744022608098],[-75.3280507742526,39.3743400576516],[-75.3281449584562,39.3742903790498],[-75.3282429231664,39.3742253240191],[-75.3283601564752,39.3741233687375],[-75.3284438861848,39.3740426285481],[-75.3285202451362,39.3739689966602],[-75.3286255897669,39.3738609751728],[-75.3288088713336,39.3736696466076],[-75.3289880783296,39.37345997789],[-75.3292919321349,39.3731114818875],[-75.3295062522931,39.372870920868],[-75.329650378996,39.372704415682],[-75.3298764372061,39.3724545452992],[-75.3301180150494,39.3721800460777],[-75.3302398828348,39.3720488423325],[-75.3302977004435,39.3719725139809],[-75.3303710424928,39.3718779257164],[-75.3306401676009,39.3715940578795],[-75.3307416521222,39.3714921855769],[-75.3307418434121,39.3714919725257],[-75.3308819575431,39.3713379514568],[-75.33101444608,39.3711898947549],[-75.3311080061598,39.3710881057463],[-75.3311898625256,39.370998618569],[-75.3312679736671,39.3709245057365],[-75.3313420145819,39.3708443262895],[-75.3314279400767,39.3707640069304],[-75.3315491236297,39.3706620201872],[-75.3316470078311,39.3705908690146],[-75.3317213388349,39.3705320755931],[-75.3317684086851,39.3705072484844],[-75.3317995946942,39.3704732819924],[-75.3318308171507,39.3704423896255],[-75.3318541879856,39.3704146845237],[-75.3318733789243,39.3703685305064],[-75.331884646756,39.3703194407063],[-75.3318957682995,39.370258024648],[-75.3318908979116,39.3701814842631],[-75.3318874167624,39.3701469044252],[-75.3318819557984,39.3700926727067],[-75.3318771877103,39.3700349220547],[-75.3318634900069,39.3698690648418],[-75.3318450971277,39.3696485587629],[-75.3318108570511,39.3690941081605],[-75.3317826860039,39.3687142619065],[-75.3317687282168,39.3685366106627],[-75.3317513908886,39.3684080477792],[-75.3317251105184,39.3681875160304],[-75.3317024293271,39.3679394195987],[-75.3316883281621,39.3677495510333],[-75.3316616495088,39.3674984357732],[-75.3316483100995,39.3673728646253],[-75.3316266113244,39.3672075419073],[-75.3316170883883,39.367069697236],[-75.3316122179466,39.3669931027494],[-75.3316272288594,39.3669255902663],[-75.33164631027,39.3668702670037],[-75.3316693175869,39.3668149436036],[-75.3317043316316,39.3667639536586],[-75.3317221946301,39.3667400496351],[-75.3317524935302,39.366712047305],[-75.3318136098078,39.3666637541805],[-75.3319036357336,39.366595678385],[-75.3320171061364,39.3665090668867],[-75.3322050484802,39.3663759608013],[-75.3323655843148,39.3662644667345],[-75.332499825682,39.3661755641099],[-75.3325240141716,39.3661632042724],[-75.3325929588265,39.3661279756372],[-75.3326894035703,39.3660761621087],[-75.3327509906467,39.3660409346836],[-75.3328164434072,39.3659945863313],[-75.3329103945435,39.3659265095879],[-75.3329604062722,39.36589758666],[-75.3329648113423,39.3658950392217],[-75.3330554465317,39.3658396430969],[-75.3331925754608,39.3657528610794],[-75.3332669358098,39.3656971696565],[-75.3333961757367,39.3656073956159],[-75.333537119074,39.3655082855863],[-75.3336545834201,39.3654246912523],[-75.3338112269624,39.3653162974693],[-75.3339639073864,39.3652079327783],[-75.334101142751,39.3651272715962],[-75.3342187158134,39.3650559482763],[-75.3343480632947,39.3649753163259],[-75.3344851874603,39.3648854845444],[-75.3345556584272,39.3648359428579],[-75.3346144251421,39.3647987024905],[-75.3346731555411,39.3647553946321],[-75.334727853005,39.3647090412765],[-75.3347748089209,39.3646719404969],[-75.3348137309027,39.3646256723423],[-75.3348566157626,39.3645794027673],[-75.334887541543,39.3645240219113],[-75.3349222843795,39.3644594147912],[-75.3349490667135,39.3643856677108],[-75.3349641105018,39.3643242501918],[-75.3349751196175,39.3642536915766],[-75.334985873049,39.3641616635603],[-75.3350038202307,39.3640113775643],[-75.3350168916477,39.3637814210283],[-75.3350449717383,39.3634870268473],[-75.3350723932857,39.3631374504535],[-75.3350928793356,39.3628706496883],[-75.335105804493,39.362628448805],[-75.3351191328878,39.3624230359999],[-75.335143797156,39.3621715249533],[-75.3351655593602,39.3620120135342],[-75.3351797616471,39.3618770740801],[-75.3352069641237,39.3615091040929],[-75.3352451747388,39.3610705745078],[-75.3352654034426,39.360782359173],[-75.3353154964977,39.3603468195252],[-75.3353506571406,39.3599849149646],[-75.3353782597467,39.3596506576531],[-75.3353839196996,39.359463695718],[-75.335395011077,39.3593879586731],[-75.3354131269048,39.359264264438],[-75.3354308156861,39.3590894335625],[-75.335441132419,39.3589667951844],[-75.3354625259427,39.3587735426473],[-75.3354728397621,39.3586417063045],[-75.3354828240332,39.3584853266703],[-75.3354923348614,39.3582891111458],[-75.3355050041343,39.3580285159209],[-75.3355041645791,39.3579580422538],[-75.3355166276226,39.357914682374],[-75.3355346880266,39.3578719948306],[-75.3355617933853,39.3578227917764],[-75.3355930086324,39.3577918984113],[-75.3356046576463,39.3577800468325],[-75.3356202997613,39.3577641364405],[-75.3356908346357,39.3577207162532],[-75.3357534481158,39.3576743046351],[-75.335820094377,39.3576339875969],[-75.3358867787092,39.3575997920235],[-75.3359376529101,39.357562635581],[-75.3359846034593,39.3575255343262],[-75.3360314068755,39.3574792091075],[-75.3360703622523,39.3574360425781],[-75.3360974322521,39.3573868387506],[-75.3361126571061,39.3573407133505],[-75.3361200667891,39.3572977734473],[-75.3361151926224,39.3572212060884],[-75.3361091502319,39.3570465455577],[-75.3361023747194,39.3568075611847],[-75.3360925906942,39.3566513234816],[-75.3360878967172,39.3565869443256],[-75.3360953093546,39.3565470796989],[-75.3361068266178,39.3565194309377],[-75.3361222697324,39.3564917269452],[-75.3361417101114,39.3564640212542],[-75.3361690368407,39.3564393062722],[-75.3362042495533,39.3564145346193],[-75.3362436040289,39.3564019794513],[-75.3362909193358,39.3563985641408],[-75.3363619641129,39.356398053575],[-75.336464698168,39.3564034657991],[-75.3365634716203,39.3564119528797],[-75.3366660597065,39.356408140972],[-75.3368120747201,39.3564040158108],[-75.3369818192134,39.3564027951037],[-75.3371554535028,39.3563984987904],[-75.3372856222156,39.3563883643489],[-75.337415646271,39.3563690328237],[-75.3375534092855,39.3563343256993],[-75.3376755100217,39.3563089282305],[-75.3377738076531,39.3562775793161],[-75.3378443764256,39.3562372328796],[-75.3379030609891,39.3561908483893],[-75.3380201769108,39.3560827334619]]}},{"type":"Feature","id":483446,"properties":{"OBJECTID":483446,"PRIMENAME":"Bayside Road","ELEVTYP_F":0,"ELEVTYP_T":0},"geometry":{"type":"LineString","coordinates":[[-75.3744454363277,39.3904005585504],[-75.375243784463,39.3901021762377],[-75.3756421466667,39.3899476767649],[-75.3761247574495,39.3897622031273],[-75.3770413987054,39.3894118503913],[-75.3774041971709,39.3892803460696],[-75.3779192809447,39.3890921213327],[-75.3788198829939,39.3887620838302],[-75.3788501012239,39.3887514524168],[-75.3795974881585,39.3884885116643],[-75.3801127179051,39.3883129330509],[-75.3810135500336,39.3880055820277],[-75.3812792981547,39.3879177147589],[-75.3816616467093,39.3877860220765],[-75.3820926241019,39.3876388037738],[-75.3827307866907,39.3874092099942],[-75.3829058801837,39.3873548639685],[-75.3830548987448,39.3873006876602],[-75.383255736653,39.3872284912393],[-75.383385353075,39.3871845667969],[-75.383560346608,39.3871251410237],[-75.383722447924,39.3870759440331],[-75.3838392352398,39.3870472713251],[-75.3839723286521,39.3870210013141],[-75.3841282385533,39.3869970826708],[-75.3842906894906,39.3869756408051],[-75.3844629016109,39.3869566773335],[-75.3848594679292,39.3869208248378],[-75.38539613185,39.3868676971426]]}},{"type":"Feature","id":483533,"properties":{"OBJECTID":483533,"PRIMENAME":"Bayside Road","ELEVTYP_F":0,"ELEVTYP_T":0},"geometry":{"type":"LineString","coordinates":[[-75.3865941115266,39.3867429111344],[-75.3866145001754,39.3867408064712],[-75.3879567181147,39.3865992488825],[-75.3887528432125,39.3865073156149],[-75.3897504702251,39.3863936279517],[-75.3906020179215,39.3863088085729],[-75.3910536813509,39.3862573845545],[-75.3918174455082,39.3861783080617],[-75.3922886675924,39.38612922811],[-75.392421912145,39.3861095635461],[-75.3924899780662,39.3860923210923],[-75.3925607372745,39.3860698135722],[-75.3926227781343,39.3860433364823],[-75.3926907067708,39.3860125039334],[-75.3927650505928,39.3859715189255],[-75.3928294995697,39.3859230585271],[-75.392897174281,39.385869493816],[-75.3929968424113,39.3857778226575],[-75.3931577789096,39.3856362911069],[-75.3931706322557,39.3856249866825],[-75.3933925989887,39.3854212618504],[-75.3936048614683,39.3852251885216],[-75.3939040019592,39.38495014309],[-75.3940036700544,39.384855944365],[-75.3940711498217,39.3847872526957],[-75.3941675307172,39.3846905532901],[-75.3942640092215,39.3846014313521],[-75.3943504674682,39.3844896523628],[-75.3944335394028,39.3843703219426],[-75.3944847761858,39.3843042257474],[-75.3945393006669,39.384240712924],[-75.3946259452303,39.3841491404896],[-75.3947030904101,39.3840727958337],[-75.3947345855355,39.3840372455978],[-75.3947612795558,39.3840109572073],[-75.3947798284014,39.3840005735444]]}},{"type":"Feature","id":483534,"properties":{"OBJECTID":483534,"PRIMENAME":"Seventh Day Lane","ELEVTYP_F":0,"ELEVTYP_T":0},"geometry":{"type":"LineString","coordinates":[[-75.38539613185,39.3868676971426],[-75.3854041685891,39.3866441549834],[-75.3853938164613,39.3857725320289],[-75.3854026260984,39.3852186608358],[-75.3854054789184,39.384372158257],[-75.3854095730781,39.3838025491743],[-75.385425470285,39.3837401245154],[-75.3854468914431,39.3836787018256],[-75.3854737346299,39.3836185755335],[-75.3855058699888,39.3835600339741],[-75.3855431466594,39.3835033566339],[-75.3855853823543,39.3834488160316],[-75.3856323783685,39.3833966712989],[-75.3856839068805,39.3833471736818],[-75.3857397236399,39.3833005601384],[-75.3857854933105,39.3832642712868],[-75.3858278991196,39.3832256002295],[-75.3858667356472,39.3831847331949],[-75.3859018162162,39.3831418697807],[-75.3859329704911,39.3830972166662],[-75.3859600468218,39.3830509893959],[-75.3859829145765,39.3830034132629],[-75.3860014629125,39.382954717913],[-75.386015601959,39.3829051391374],[-75.3860252628063,39.382854917972],[-75.386030399769,39.3828042961761],[-75.3860309869502,39.3827535198618],[-75.3860270216659,39.3827028349639],[-75.3860439645615,39.38208931459],[-75.3860593870528,39.381634629462]]}},{"type":"Feature","id":483535,"properties":{"OBJECTID":483535,"PRIMENAME":"Tindall Island Road","ELEVTYP_F":0,"ELEVTYP_T":0},"geometry":{"type":"LineString","coordinates":[[-75.3774729489038,39.3980453295039],[-75.3774498337812,39.3979430658936],[-75.3773840198821,39.3978108129478],[-75.3771518018932,39.3974288673165],[-75.3769316026578,39.3970881792477],[-75.3763625448265,39.3962511626049],[-75.3761373292051,39.3958850041401],[-75.3760507395201,39.3957181203767],[-75.375973743959,39.3955657705105],[-75.3759299935091,39.3954458705366],[-75.3758956092494,39.3953223032008],[-75.3758758659157,39.3952459870268],[-75.3758509033287,39.3951259725944],[-75.3758345896726,39.3949476321638],[-75.3757989122756,39.3943469996861],[-75.3757628796946,39.3937207812433],[-75.3757519862017,39.3935389382451],[-75.375727330683,39.3931274241807],[-75.3757112094693,39.3929672852624],[-75.3756806234376,39.3927708482257],[-75.3756357368342,39.3925599675399],[-75.375571871894,39.3923309716637],[-75.3755037560242,39.392138468766],[-75.3754265027443,39.3919678623741],[-75.375315643594,39.3917356221913],[-75.3752194565586,39.391550578901],[-75.3750327015027,39.3912533457593],[-75.374769833365,39.3908765400172],[-75.3744454363277,39.3904005585504]]}},{"type":"Feature","id":484352,"properties":{"OBJECTID":484352,"PRIMENAME":"Bayside Road","ELEVTYP_F":0,"ELEVTYP_T":0},"geometry":{"type":"LineString","coordinates":[[-75.38539613185,39.3868676971426],[-75.3854528319076,39.3868620834381],[-75.3855225087557,39.3868551846083],[-75.3865941115266,39.3867429111344]]}}]}
